icao,iata,synop,name,state,country,lat,lon,elev,priority,srcid
K5J0,5J0,,John Day,OR,US,44.3833333333,-118.966666667,1127,8,K5J0
KTYR,TYR,,Tyler,TX,US,32.35,-95.4,165,4,KTYR
KOQU,OQU,,N. Kingston,RI,US,41.61,-71.42,6,7,KOQU
KUIL,UIL,72797,Quillayute,WA,US,47.96,-124.55,54,2,KUIL
KLWA,LWA,,South Haven,MI,US,42.351,-86.256,203,8,KLWA
KREJ,REJ,72661,Redig,SD,US,45.22,-103.61,955,8,KREJ
KRDU,RDU,72306,Raleigh-Durham,NC,US,35.88,-78.78,130,2,KRDU
KMGM,MGM,72226,Montgomery,AL,US,32.3,-86.4,63,4,KMGM
KDMW,DMW,,Westminster,MD,US,39.61,-77.05,188,8,KDMW
KJAY,JAY,,Jay Peak,VT,US,44.97,-72.56,355,8,KJAY
KESC,ESC,72648,Escanaba,MI,US,45.73,-87.08,187,7,KESC
KJKL,JKL,,Jackson,KY,US,37.58,-83.32,416,5,KJKL
KLAA,LAA,72463,Lamar,CO,US,38.07,-102.68,1119,4,KLAA
KUCA,UCA,,Utica,NY,US,43.15,-75.3833333333,228,4,KUCA
MUHA,,78224,Havana,,CU,22.98,-82.4,64,0,MUHA
KBVX,BVX,,Batesville,AR,US,35.73,-91.65,141,7,KBVX
KHKY,HKY,,Hickory,NC,US,35.76,-81.38,354,6,KHKY
KAUS,AUS,72254,Austin,TX,US,30.183,-97.68,166,3,KAUS
KSLE,SLE,72694,Salem,OR,US,44.93,-123.02,59,2,KSLE
KNBK,NBK,,New Brunswick,NJ,US,40.47,-74.4,25,8,KNBK
KVCT,VCT,72255,Victoria,TX,US,28.86,-96.92,31,6,KVCT
KFMY,FMY,,Fort Myers/Page Field,FL,US,26.58,-81.87,4,6,KFMY
KMCO,MCO,72205,Orlando Jetport,FL,US,28.43,-81.32,29,2,KMCO
MUBY,,,Bayamo,,CU,20.4,-76.6166666667,64,7,MUBY
KCCR,CCR,,Concord,CA,US,37.98,-122.05,11,7,KCCR
MMNL,NLD,,Nuevo Laredo,,MX,27.43,-99.57,148,6,MMNL
KFHU,FHU,72273,Fort Huachuca,AZ,US,31.58,-110.33,1438,6,KFHU
KLRU,LRU,,Las Cruces,NM,US,32.289,-106.922,1358,7,KLRU
KISQ,ISQ,,Manistique,MI,US,45.97,-86.17,209,7,KISQ
KLVS,LVS,,Las Vegas,NM,US,35.66,-105.15,2091,3,KLVS
K40B,40B,,Clayton Lake,ME,US,46.62,-69.52,314,8,K40B
KVBG,VBG,72393,Vandenberg AFB,CA,US,34.75,-120.57,112,3,KVBG
KCDS,CDS,,Childress,TX,US,34.4275,-100.284,594,3,KCDS
KTTD,TTD,,Troutdale,OR,US,45.55,-122.4,14,6,KTTD
KBFI,BFI,,Seattle/Boeing Field,WA,US,47.53,-122.3,4,1,KBFI
KLAS,LAS,72386,Las Vegas,NV,US,36.09,-115.17,636,2,KLAS
KCOD,COD,72670,Cody,WY,US,44.53,-109.02,1553,3,KCOD
KJXN,JXN,,Jackson,MI,US,42.27,-84.47,305,6,KJXN
KLFK,LFK,,Lufkin,TX,US,31.23,-94.75,88,6,KLFK
KHSV,HSV,72323,Huntsville,AL,US,34.66,-86.77,191,4,KHSV
KLGU,LGU,,Logan-Cache,UT,US,41.79,-111.85,1355,6,KLGU
KU24,U24,72479,Delta,UT,US,39.34,-112.59,1414,7,KU24
KPKB,PKB,72427,Parkersburg,WV,US,39.36,-81.43,262,6,KPKB
KVSF,VSF,,Springfield,VT,US,43.34,-72.52,175,7,KVSF
KSLK,SLK,,Saranac Lake,NY,US,44.39,-74.21,498,6,KSLK
KLOR,LOR,,Ft. Rucker,AL,US,31.356,-85.751,74,7,KLOR
KFWD,FWD,72249,Ft. Worth,TX,US,32.8166666667,-97.2833333333,196,8,KFWD
KP53,P53,,Munising,MI,US,46.412,-86.651,187,7,KP53
KEDW,EDW,72381,Edwards AFB,CA,US,34.91,-117.87,702,3,KEDW
KPUW,PUW,,Pullman,WA,US,46.76,-117.12,773,7,KPUW
KHLN,HLN,72772,Helena,MT,US,46.61,-112.0,1182,4,KHLN
KABE,ABE,72517,Allentown-Bethlehem,PA,US,40.66,-75.43,114,6,KABE
KHVL,HVL,74541,Haviland Profiler,KS,US,37.63,-99.04,635,8,KHVL
KALB,ALB,72518,Albany County,NY,US,42.76,-73.8,92,3,KALB
KAOO,AOO,,Altoona,PA,US,40.3,-78.32,455,6,KAOO
KIRK,IRK,,Kirksville,MO,US,40.15,-92.53,272,6,KIRK
KVEL,VEL,,Vernal,UT,US,40.44,-109.51,1604,6,KVEL
KMTJ,MTJ,,Montrose,CO,US,38.51,-107.88,1750,6,KMTJ
KRUT,RUT,,Rutland,VT,US,43.54,-72.95,240,7,KRUT
,HBR,74546,Hillsboro Profiler,KS,US,38.33,-97.23,446,8,HBR
MMCL,CUL,76412,Culiacan,,MX,24.82,-107.4,39,6,MMCL
MMDO,DGO,76423,Durango,,MX,24.13,-104.53,1857,1,MMDO
KNKX,NKX,72293,Miramar NAS,CA,US,32.88,-117.15,146,5,KNKX
KPIE,PIE,,St. Petersburg,FL,US,27.91,-82.69,4,6,KPIE
KPBF,PBF,,Pine Bluff,AR,US,34.18,-91.93,62,6,KPBF
CYYJ,YYJ,71799,Victoria Intl,BC,CA,48.66,-123.43,19,6,CYYJ
KPEQ,PEQ,,Pecos,TX,US,31.382,-103.511,797,8,KPEQ
KEGC,EGC,,Everglades City,FL,US,25.89,-81.32,2,7,KEGC
CYZT,YZT,71109,Port Hardy,BC,CA,50.69,-127.37,22,0,CYZT
KBFF,BFF,72566,Scottsbluff,NE,US,41.88,-103.6,1203,6,KBFF
CYQQ,YQQ,71893,Comox,BC,CA,49.73,-124.9,24,6,CYQQ
MMUN,CUN,76595,Cancun,,MX,21.03,-86.87,10,1,MMUN
KRNT,RNT,,Renton,WA,US,47.5,-122.22,21,7,KRNT
KBJC,BJC,,Broomfield,CO,US,39.909,-105.117,1724,1,KBJC
KTCS,TCS,72271,Truth Or Consequences,NM,US,33.23,-107.27,1469,6,KTCS
KSTL,STL,72434,St. Louis/Lambert,MO,US,38.76,-90.37,171,0,KSTL
KPNC,PNC,,Ponca City,OK,US,36.73,-97.1,308,6,KPNC
KBOI,BOI,72681,Boise,ID,US,43.58,-116.22,875,0,KBOI
KELO,ELO,,Ely,MN,US,47.91,-91.82,443,7,KELO
KCON,CON,72605,Concord,NH,US,43.21,-71.5,103,6,KCON
KOAJ,OAJ,,Jacksonville,NC,US,34.83,-77.62,29,7,KOAJ
,TCU,74731,Tucumcari Profiler,NM,US,35.06,-103.6,1268,8,TCU
KLWM,LWM,,Lawrence,MA,US,42.73,-71.12,54,7,KLWM
K87Q,87Q,72390,Punta Piedras,CA,US,35.76,-121.28,262,7,K87Q
MUGM,,78367,Guantanamo Bay,CU,CU,19.906,-75.207,17,6,MUGM
KLOL,LOL,72580,Lovelock,NV,US,40.08,-118.55,1189,6,KLOL
KRCZ,RCZ,,Rockingham,NC,US,34.891,-79.759,109,7,KRCZ
KCEC,CEC,,Crescent City,CA,US,41.79,-124.24,17,6,KCEC
KGNV,GNV,,Gainesville,FL,US,29.68,-82.27,45,4,KGNV
KALS,ALS,72462,Alamosa,CO,US,37.46,-105.87,2299,6,KALS
KLAX,LAX,72295,Los Angeles,CA,US,33.94,-118.4,46,0,KLAX
KBRD,BRD,,Brainerd,MN,US,46.4,-94.13,372,4,KBRD
CYCX,YCX,71701,Gagetown,NB,CA,45.84,-66.43,51,6,CYCX
KSTF,STF,,Starkville,MS,US,33.49,-88.84,83,8,KSTF
KOTX,OTX,72786,Spokane WFO,WA,US,47.68,-117.63,727,8,KOTX
KCOU,COU,72445,Columbia,MO,US,38.83,-92.22,271,4,KCOU
KBHM,BHM,72228,Birmingham Intl,AL,US,33.56,-86.75,197,4,KBHM
KLGA,LGA,72503,New York/La Guardia,NY,US,40.78,-73.88,11,1,KLGA
KVIH,VIH,,Vichy/Rolla,MO,US,38.14,-91.77,333,7,KVIH
KBCE,BCE,,Bryce Canyon,UT,US,37.71,-112.16,2312,6,KBCE
KAAT,AAT,,Alturas,CA,US,41.491,-120.564,1331,7,KAAT
KRUM,RUM,72618,Rumford,ME,US,44.54,-70.53,207,8,KRUM
KUKI,UKI,,Ukiah,CA,US,39.14,-123.2,187,6,KUKI
KMVL,MVL,,Morrisville,VT,US,44.53,-72.61,234,7,KMVL
KAVL,AVL,72315,Asheville,NC,US,35.44,-82.55,670,4,KAVL
KCRW,CRW,72414,Charleston,WV,US,38.38,-81.6,309,6,KCRW
CYMO,YMO,71836,Moosonee,ON,CA,51.289,-80.614,10,5,CYMO
KMHS,MHS,72595,Mount Shasta,CA,US,41.33,-122.32,1078,7,KMHS
KOGS,OGS,,Ogdensburg,NY,US,44.69,-75.4,91,7,KOGS
CYSJ,YSJ,71609,Saint John,NB,CA,45.33,-65.88,109,6,CYSJ
CYVO,YVO,71725,Val D'Or,QB,CA,48.05,-77.78,337,6,CYVO
KDOV,DOV,,Dover AFB,DE,US,39.14,-75.47,9,6,KDOV
KCAE,CAE,72310,Columbia Metro,SC,US,33.96,-81.12,70,3,KCAE
KACK,ACK,72506,Nantucket Memorial,MA,US,41.26,-70.07,16,2,KACK
KJAN,JAN,72235,Jackson,MS,US,32.33,-90.08,91,3,KJAN
KTYS,TYS,72326,Knoxville,TN,US,35.81,-83.98,302,4,KTYS
KJST,JST,,Johnstown,PA,US,40.33,-78.83,694,6,KJST
KLEE,LEE,,Leesburg,FL,US,28.82,-81.81,23,7,KLEE
KSUX,SUX,72557,Sioux City,IA,US,42.41,-96.38,338,3,KSUX
KGVL,GVL,,Gainesville,GA,US,34.26,-83.83,386,7,KGVL
KHYR,HYR,,Hayward,WI,US,46.025,-91.444,370,6,KHYR
KSUS,SUS,,St. Louis/Spirit,MO,US,38.66,-90.63,141,3,KSUS
,,76256,Empalme,,MX,27.95,-110.766666667,12,8,76256
KMHX,MHX,72305,Morehead City,NC,US,34.7666666667,-76.8666666667,9,8,KMHX
KGJT,GJT,72476,Grand Junction,CO,US,39.12,-108.53,1475,2,KGJT
KPUB,PUB,72464,Pueblo Memorial,CO,US,38.29,-104.52,1420,3,KPUB
KP38,P38,72487,Caliente,NV,US,37.62,-114.52,1333,8,KP38
MYEG,,78092,George Town,Exuma,BS,23.5,-75.766,3,7,MYEG
KSFF,SFF,,Spokane/Felts Field,WA,US,47.68,-117.32,609,6,KSFF
KLHX,LHX,,La Junta,CO,US,38.05,-103.52,1277,7,KLHX
KACY,ACY,72407,Atlantic City,NJ,US,39.46,-74.57,23,4,KACY
KMSN,MSN,72641,Madison,WI,US,43.14,-89.33,261,4,KMSN
KBAF,BAF,,Westfield,MA,US,42.16,-72.72,83,6,KBAF
KSRQ,SRQ,,Sarasota,FL,US,27.4,-82.55,18,6,KSRQ
,WNC,74556,Winchester Profiler,IL,US,39.71,-90.52,165,8,WNC
KDYS,DYS,69019,Dyess AFB,TX,US,32.44,-99.85,545,6,KDYS
KSHR,SHR,72666,Sheridan,WY,US,44.78,-106.97,1202,1,KSHR
KAQP,AQP,,Appleton,MN,US,45.23,-96.0,311,7,KAQP
KJMS,JMS,,Jamestown,ND,US,46.93,-98.68,455,6,KJMS
KMTV,MTV,,Martinsville,VA,US,36.63,-80.02,287,7,KMTV
MMPR,PVR,,Puerto Vallarta,,MX,20.68,-105.25,6,6,MMPR
KAYS,AYS,72213,Waycross,GA,US,31.25,-82.4,46,7,KAYS
KWYS,WYS,,W Yellowstone,MT,US,44.6884,-111.118,2025,8,KWYS
CYOW,YOW,71628,Ottawa,ON,CA,45.33,-75.67,114,2,CYOW
KBLI,BLI,,Bellingham,WA,US,48.79,-122.54,50,6,KBLI
KLFT,LFT,,Lafayette,LA,US,30.2,-91.99,11,6,KLFT
KMPV,MPV,,Montpelier,VT,US,44.21,-72.57,343,4,KMPV
CYQK,YQK,71850,Kenora,ON,CA,49.79,-94.37,411,6,CYQK
CWSE,WSE,71119,Edmonton/Stony Plain,AB,CA,53.5333333333,-114.083333333,766,8,CWSE
KRIW,RIW,72672,Riverton,WY,US,43.05,-108.45,1697,2,KRIW
KCXO,CXO,,Conroe,TX,US,30.36,-95.41,75,8,KCXO
KHXD,HXD,,Hilton Head Island,SC,US,32.22,-80.7,6,7,KHXD
KAGC,AGC,,Pittsburgh/Allegheny County,PA,US,40.35,-79.93,389,6,KAGC
MMCV,CVM,76491,Cuidad Victoria,,MX,23.72,-98.97,238,6,MMCV
KRCX,RCX,,Ladysmith,WI,US,45.497,-91.0,377,8,KRCX
KFNT,FNT,72637,Flint,MI,US,42.98,-83.73,233,4,KFNT
KDTX,DTX,72632,Detroit WFO,MI,US,42.71,-83.47,327,8,KDTX
KPSM,PSM,,Pease,NH,US,43.09,-70.82,31,6,KPSM
CYXC,YXC,71880,Cranbrook,BC,CA,49.62,-115.78,939,6,CYXC
MMMY,MTY,,Monterrey,,MX,25.78,-100.1,387,6,MMMY
KASE,ASE,,Aspen,CO,US,39.22,-106.87,2354,4,KASE
KSMP,SMP,,Stampede Pass,WA,US,47.29,-121.33,1208,3,KSMP
KPHX,PHX,72278,Phoenix,AZ,US,33.44,-112.02,336,0,KPHX
KCVS,CVS,,Cannon AFB,NM,US,34.39,-103.32,1309,4,KCVS
KBPI,BPI,72671,Big Piney,WY,US,42.58,-110.1,2117,6,KBPI
KRDD,RDD,72592,Redding,CA,US,40.51,-122.3,155,3,KRDD
KCAR,CAR,72712,Caribou,ME,US,46.88,-68.02,191,0,KCAR
KNSI,NSI,72291,San Nicolas Is.,CA,US,33.26,-119.45,154,7,KNSI
KMLS,MLS,74230,Miles City,MT,US,46.44,-105.87,801,4,KMLS
KAGS,AGS,72218,Augusta,GA,US,33.38,-81.97,44,4,KAGS
KERY,ERY,,Newberry,MI,US,46.31,-85.46,265,7,KERY
KACT,ACT,72256,Waco,TX,US,31.62,-97.22,151,6,KACT
KGPI,GPI,,Kalispell,MT,US,48.3,-114.27,908,6,KGPI
KIMM,IMM,,Immokalee,FL,US,26.4333333333,-81.4,12,8,KIMM
KPNT,PNT,,Pontiac,IL,US,40.92,-88.63,201,7,KPNT
MMGL,GDL,,Guadalajara,,MX,20.52,-103.32,1528,5,MMGL
CYZX,YZX,71397,Greenwood,NS,CA,44.98,-64.92,28,6,CYZX
KFLO,FLO,,Florence,SC,US,34.19,-79.72,44,6,KFLO
KENV,ENV,72581,Wendover,UT,US,40.73,-114.03,1292,4,KENV
KPHF,PHF,,Patrick Henry,VA,US,37.14,-76.5,12,6,KPHF
KORE,ORE,,Orange,MA,US,42.58,-72.28,164,7,KORE
CYHZ,YHZ,71395,Halifax,NS,CA,44.89,-63.52,145,0,CYHZ
KEGE,EGE,,Eagle,CO,US,39.66,-106.92,1993,6,KEGE
KMKE,MKE,,Milwaukee,WI,US,42.96,-87.9,206,3,KMKE
KSAF,SAF,,Santa Fe,NM,US,35.62,-106.08,1930,1,KSAF
KMHR,MHR,,Sacramento/Mather,CA,US,38.5553,-121.297,29,7,KMHR
KHON,HON,72654,Huron,SD,US,44.39,-98.22,390,6,KHON
KMQT,MQT,72743,Marquette,MI,US,46.54,-87.57,430,4,KMQT
KDSM,DSM,72546,Des Moines,IA,US,41.54,-93.65,295,2,KDSM
KSPD,SPD,,Springfield,CO,US,37.3,-102.58,1329,7,KSPD
KCTY,CTY,72212,Cross City,FL,US,29.62,-83.1,13,6,KCTY
KEMP,EMP,,Emporia,KS,US,38.34,-96.2,367,7,KEMP
KMFE,MFE,,McAllen,TX,US,26.18,-98.24,38,6,KMFE
KMRB,MRB,,Martinsburg,WV,US,39.41,-77.98,164,4,KMRB
KRBL,RBL,72591,Red Bluff,CA,US,40.15,-122.25,104,6,KRBL
KHOB,HOB,,Hobbs,NM,US,32.69,-103.2,1115,6,KHOB
KSAN,SAN,72290,San Diego Intl,CA,US,32.73,-117.17,12,2,KSAN
KCIC,CIC,72497,Chico,CA,US,39.79,-121.85,73,7,KCIC
KLKN,LKN,72582,Elko WFO,NV,US,40.8666666667,-115.716666667,1608,8,KLKN
KMFR,MFR,72597,Medford,OR,US,42.38,-122.87,396,0,KMFR
KREO,REO,,Rome,OR,US,42.58,-117.89,1235,6,KREO
KACV,ACV,,Arcata,CA,US,40.99,-124.1,67,6,KACV
KMOX,MOX,,Morris,MN,US,45.5,-95.92,343,7,KMOX
CYPL,YPL,71845,Pickle Lake,ON,CA,51.48,-90.2,373,5,CYPL
KMHT,MHT,,Manchester,NH,US,42.94,-71.43,81,6,KMHT
KNEW,NEW,,New Orleans/Lakefront,LA,US,30.04,-90.03,3,1,KNEW
MMCZ,CZM,76648,Cozumel,,MX,20.53,-86.93,5,6,MMCZ
KDAN,DAN,,Danville,VA,US,36.58,-79.33,175,6,KDAN
KFDR,FDR,,Frederick,OK,US,34.35,-98.98,386,5,KFDR
KMOB,MOB,72223,Mobile/Bates Field,AL,US,30.68,-88.25,63,3,KMOB
KAZO,AZO,,Kalamazoo,MI,US,42.24,-85.55,272,6,KAZO
KLNK,LNK,72551,Lincoln,NE,US,40.86,-96.75,364,3,KLNK
CYYG,YYG,71706,Charlottetown,PE,CA,46.29,-63.13,54,6,CYYG
MUGT,,78267,Guantanamo,,CU,20.0833333333,-75.15,8,7,MUGT
CYTL,YTL,71848,Big Trout Lake,ON,CA,53.83,-89.87,224,6,CYTL
,BLM,74662,Bloomfield Profiler,MO,US,36.83,-89.94,105,8,BLM
KPOU,POU,,Poughkeepsie,NY,US,41.64,-73.88,46,4,KPOU
KGMU,GMU,,Greenville Downtown,SC,US,34.85,-82.35,315,5,KGMU
KIAH,IAH,72243,Houston/Bush,TX,US,29.97,-95.35,36,2,KIAH
KROD,ROD,,Rosewood Vor,OH,US,40.2833333333,-84.0333333333,360,8,KROD
KIND,IND,72438,Indianapolis,IN,US,39.73,-86.27,241,2,KIND
KRNK,RNK,72318,Roanoke/Blacksburg,VA,US,37.2,-80.4,648,8,KRNK
,PRC,74649,Purcell Profiler,OK,US,34.98,-97.46,333,8,PRC
KCRP,CRP,72251,Corpus Christi,TX,US,27.77,-97.5,14,2,KCRP
KCNK,CNK,72458,Concordia,KS,US,39.55,-97.65,447,7,KCNK
KTVC,TVC,,Traverse City,MI,US,44.73,-85.58,190,6,KTVC
KGFL,GFL,,Glens Falls,NY,US,43.36,-73.62,103,6,KGFL
KMKC,MKC,,Kansas City/Downtown,MO,US,39.12,-94.6,227,1,KMKC
KLRD,LRD,72252,Laredo,TX,US,27.54,-99.47,155,3,KLRD
KHSI,HSI,,Hastings,NE,US,40.61,-98.43,591,7,KHSI
KSYR,SYR,72519,Syracuse,NY,US,43.12,-76.12,127,3,KSYR
KFAM,FAM,,Farmington,MO,US,37.76,-90.43,288,6,KFAM
CYYZ,YYZ,71624,Toronto,ON,CA,43.69,-79.63,173,3,CYYZ
KPIT,PIT,72520,Pittsburgh Intl,PA,US,40.51,-80.22,357,2,KPIT
,GDA,74530,Granada Profiler,CO,US,37.83,-102.24,1153,8,GDA
KHRL,HRL,,Harlingen,TX,US,26.23,-97.67,10,6,KHRL
KCHE,CHE,,Hayden Vor,CO,US,40.4833333333,-107.216666667,2339,8,KCHE
KBGR,BGR,72607,Bangor,ME,US,44.81,-68.83,57,3,KBGR
KGCK,GCK,,Garden City,KS,US,37.94,-100.72,877,4,KGCK
KAUW,AUW,72646,Wausau,WI,US,44.93,-89.62,362,6,KAUW
K2F1,2F1,,Shamrock,TX,US,35.22,-100.22,691,8,K2F1
KBWG,BWG,,Bowling Green,KY,US,36.96,-86.42,168,4,KBWG
KUVA,UVA,,Uvalde,TX,US,29.211,-99.744,287,7,KUVA
KPVW,PVW,,Plainview,TX,US,34.23,-101.77,1040,7,KPVW
KPSF,PSF,,Pittsfield,MA,US,42.43,-73.29,355,7,KPSF
K9B6,9B6,,Sewel Ridge,ME,US,43.0,-68.0,150,8,K9B6
KJDN,JDN,,Jordan,MT,US,47.33,-106.93,801,7,KJDN
KIDA,IDA,,Idaho Falls,ID,US,43.53,-112.07,1453,6,KIDA
CYVV,YVV,71633,Wiarton,ON,CA,44.76,-81.1,222,6,CYVV
KGNR,GNR,72619,Greenville,ME,US,45.462,-69.595,427,7,KGNR
KTRK,TKF,,Truckee-Tahoe,CA,US,39.32,-120.14,1798,6,KTRK
KLNS,LNS,,Lancaster,PA,US,40.12,-76.3,125,7,KLNS
KLAN,LAN,72539,Lansing,MI,US,42.78,-84.6,264,4,KLAN
KANB,ANB,,Anniston Metro,AL,US,33.59,-85.85,183,6,KANB
KTUS,TUS,,Tucson,AZ,US,32.12,-110.93,776,2,KTUS
KGDP,GDP,72262,Guadalupe Mtns Np,TX,US,31.83,-104.8,1692,7,KGDP
KMAF,MAF,72265,Midland,TX,US,31.933,-102.2,874,5,KMAF
MMMM,MLM,76665,Morelia,,MX,19.85,-101.03,1833,6,MMMM
KFVX,FVX,,Farmville,VA,US,37.35,-78.43,125,7,KFVX
KRFD,RFD,72543,Rockford,IL,US,42.21,-89.1,221,4,KRFD
KTPA,TPA,72211,Tampa,FL,US,27.97,-82.53,11,3,KTPA
KCKB,CKB,,Clarksburg,WV,US,39.29,-80.23,360,4,KCKB
KPAH,PAH,72435,Paducah,KY,US,37.07,-88.77,119,3,KPAH
KABI,ABI,72266,Abilene,TX,US,32.43,-99.68,548,4,KABI
KOSH,OSH,,Oshkosh,WI,US,44.01,-88.57,248,6,KOSH
KDQU,DQU,74752,DeQueen Profiler,AR,US,34.14,-94.25,175,8,KDQU
KCOS,COS,72466,Colorado Springs,CO,US,38.83,-104.72,1856,3,KCOS
CYYC,YYC,71877,Calgary,AB,CA,51.12,-114.02,1084,0,CYYC
KCHO,CHO,,Charlottesville,VA,US,38.14,-78.45,192,6,KCHO
KPHD,PHD,,New Philadelphia,OH,US,40.47,-81.42,272,7,KPHD
CYKF,YKF,71368,Waterloo Well,ON,CA,43.47,-80.39,317,6,CYKF
KRME,RME,,Rome,NY,US,43.234,-75.407,154,7,KRME
KATY,ATY,,Watertown,SD,US,44.92,-97.16,532,6,KATY
KMAX,MAX,,Jackson County,OR,US,42.0833333333,-122.716666667,2290,8,KMAX
CYLW,YLW,71203,Kelowna,BC,CA,49.94,-119.46,817,1,CYLW
KSJN,SJN,,St. Johns,AZ,US,34.52,-109.38,1745,6,KSJN
CYWA,YWA,71625,Petawawa,ON,CA,45.96,-77.31,130,6,CYWA
KACQ,ACQ,,Waseca,MN,US,44.14,-93.56,337,8,KACQ
CYGQ,YGQ,71834,Geraldton,ON,CA,49.79,-86.93,351,6,CYGQ
KSCK,SCK,72492,Stockton Metro,CA,US,37.91,-121.25,10,6,KSCK
KMDT,MDT,,Middletown,PA,US,40.21,-76.77,95,6,KMDT
KSUN,SUN,,Hailey,ID,US,43.504,-114.296,1620,6,KSUN
KMOT,MOT,,Minot,ND,US,48.28,-101.28,519,6,KMOT
KCOT,COT,,Cotulla,TX,US,28.45,-99.22,140,7,KCOT
MMCN,CEN,,Ciudad Obregon,MX,MX,27.39,-109.83,43,6,MMCN
KPRX,PRX,,Paris,TX,US,33.64,-95.45,167,7,KPRX
KCHA,CHA,72324,Chattanooga,TN,US,35.04,-85.2,210,4,KCHA
KDLS,DLS,,The Dalles,OR,US,45.62,-121.15,71,3,KDLS
KTNB,TNB,,Boone,NC,US,36.199,-81.651,911,7,KTNB
KMYL,MYL,,McCall,ID,US,44.89,-116.1,1533,6,KMYL
KJWG,JWG,,Watonga,OK,US,35.86,-98.42,472,7,KJWG
KPDK,PDK,,Atlanta/Dekalb-Peachtree,GA,US,33.88,-84.3,302,7,KPDK
KMBL,MBL,,Manistee,MI,US,44.28,-86.25,189,7,KMBL
KFDY,FDY,,Findlay,OH,US,41.03,-83.67,247,6,KFDY
KFTY,FTY,,Atlanta/Fulton County,GA,US,33.78,-84.52,263,3,KFTY
KTVL,TVL,,South Lake Tahoe,CA,US,38.91,-120.0,1924,6,KTVL
KSFM,SFM,,Sanford,ME,US,43.4,-70.7,74,7,KSFM
KHRO,HRO,,Harrison,AR,US,36.28,-93.15,417,6,KHRO
,LMN,74647,Lamont Profiler,OK,US,36.72,-97.49,317,8,LMN
KCMX,CMX,72744,Houghton,MI,US,47.18,-88.5,326,6,KCMX
KCGI,CGI,,Cape Girardeau,MO,US,37.23,-89.58,102,6,KCGI
CYXX,YXX,71108,Abbotsford,BC,CA,49.04,-122.37,58,6,CYXX
KTBW,TBW,72210,Tampa Bay Area WFO,FL,US,27.7,-82.4,12,8,KTBW
KFAT,FAT,72389,Fresno,CA,US,36.78,-119.72,104,2,KFAT
KPGA,PGA,72371,Page,AZ,US,36.94,-111.45,1307,3,KPGA
KMOR,MOR,,Morristown,TN,US,36.1833333333,-83.3666666667,400,8,KMOR
KBKE,BKE,,Baker,OR,US,44.84,-117.82,1024,6,KBKE
KPSP,PSP,,Palm Springs,CA,US,33.84,-116.5,135,3,KPSP
CYFO,YFO,,Flin Flon,MB,CA,54.69,-101.69,304,7,CYFO
KORF,ORF,72308,Norfolk,VA,US,36.9,-76.2,14,3,KORF
KBKW,BKW,72412,Beckley Memorial,WV,US,37.79,-81.12,764,6,KBKW
KTUL,TUL,72356,Tulsa,OK,US,36.21,-95.9,207,3,KTUL
KBIS,BIS,72764,Bismarck,ND,US,46.78,-100.75,505,0,KBIS
KROC,ROC,72529,Rochester,NY,US,43.12,-77.67,178,6,KROC
KMLI,MLI,72544,Moline,IL,US,41.46,-90.52,184,6,KMLI
KPSC,PSC,,Pasco,WA,US,46.27,-119.12,121,6,KPSC
KFLL,FLL,,Fort Lauderdale,FL,US,26.07,-80.15,3,6,KFLL
,BLR,74357,Blue River Profiler,WI,US,43.24,-90.47,265,8,BLR
KEWN,EWN,,New Bern,NC,US,35.09,-77.05,3,6,KEWN
KFCS,FCS,72468,Fort Carson,CO,US,38.69,-104.77,1789,6,KFCS
KINW,INW,72374,Winslow (Autob),AZ,US,35.03,-110.73,1490,4,KINW
KAVP,AVP,72513,Wilkes-Barre/Scranton,PA,US,41.33,-75.73,291,6,KAVP
KNHK,NHK,72404,Patuxent River N,MD,US,38.29,-76.4,12,6,KNHK
KFRI,FRI,72455,Junction City,KS,US,39.055,-96.765,325,6,KFRI
KDUJ,DUJ,,Dubois,PA,US,41.19,-78.9,554,6,KDUJ
KDBQ,DBQ,72547,Dubuque,IA,US,42.41,-90.7,326,4,KDBQ
KFRM,FRM,,Fairmont,MN,US,43.66,-94.42,354,6,KFRM
KGSP,GSP,72312,Greenville/Spartanburg,SC,US,34.91,-82.22,287,3,KGSP
KHGR,HGR,,Hagerstown,MD,US,39.71,-77.73,224,7,KHGR
KSAC,SAC,,Sacramento/Executive,CA,US,38.52,-121.5,11,2,KSAC
MYBS,,78070,Alice Town,Bimini,BS,25.73,-79.3,3,7,MYBS
KGYX,GYX,74389,Gray,ME,US,43.9,-70.25,125,8,KGYX
KPWM,PWM,72606,Portland,ME,US,43.66,-70.32,15,3,KPWM
CWZC,,,Moosonee,ON,CA,51.2833333333,-80.6,11,8,CWZC
KMKL,MKL,,McKellar,TN,US,35.61,-88.92,128,6,KMKL
KTMB,TMB,,Miami/Kendall-Tamiami,FL,US,25.65,-80.43,2,7,KTMB
KCHH,CHH,74494,Chatham,MA,US,41.68,-69.97,16,8,KCHH
KWRL,WRL,,Worland,WY,US,43.98,-107.97,1271,6,KWRL
KPAE,PAE,,Everett,WA,US,47.91,-122.28,180,6,KPAE
KMCN,MCN,72217,Macon,GA,US,32.71,-83.65,109,3,KMCN
KELP,ELP,72270,El Paso,TX,US,31.8,-106.4,1197,2,KELP
KAHN,AHN,72311,Athens,GA,US,33.96,-83.32,244,4,KAHN
KSBP,SBP,,San Luis Obispo,CA,US,35.24,-120.64,59,6,KSBP
KTLH,TLH,72214,Tallahassee,FL,US,30.4,-84.35,19,3,KTLH
KDLH,DLH,72745,Duluth,MN,US,46.84,-92.18,435,2,KDLH
KHVR,HVR,72777,Havre,MT,US,48.55,-109.77,787,3,KHVR
KDAY,DAY,72429,Dayton,OH,US,39.91,-84.2,305,4,KDAY
KBTM,BTM,,Butte,MT,US,45.96,-112.5,1688,6,KBTM
KCIU,CIU,,Chippewa,MI,US,46.26,-84.47,244,7,KCIU
CYMT,YMT,71822,Chibougamau-Chapais,QB,CA,49.78,-74.53,387,6,CYMT
KMSV,MSV,,Monticello,NY,US,41.71,-74.8,428,7,KMSV
KCNU,CNU,,Chanute,KS,US,37.68,-95.48,297,6,KCNU
KICT,ICT,72450,Wichita,KS,US,37.66,-97.43,407,3,KICT
CYXE,YXE,71866,Saskatoon,SK,CA,52.18,-106.7,504,5,CYXE
KMIE,MIE,,Muncie,IN,US,40.242,-85.396,285,7,KMIE
KSBN,SBN,72535,South Bend,IN,US,41.71,-86.32,237,4,KSBN
KPIH,PIH,72578,Pocatello,ID,US,42.93,-112.6,1359,3,KPIH
KHPN,HPN,,White Plains,NY,US,41.08,-73.72,121,6,KHPN
MMHO,HMO,76160,Hermosillo,,MX,29.07,-110.97,184,6,MMHO
MUVR,,78229,Varadero,,CU,23.13,-81.28,65,6,MUVR
KPIA,PIA,72532,Peoria,IL,US,40.66,-89.68,205,4,KPIA
KBVR,BVR,,Beaver Rim,WY,US,42.58,-108.28,2072,9,KBVR
,WNF,74753,Winnfield Profiler,LA,US,31.92,-92.74,51,8,WNF
KSBM,SBM,99433,Sheboygan,WI,US,43.78,-87.85,232,7,KSBM
KDMN,DMN,,Deming,NM,US,32.26,-107.7,1311,6,KDMN
KMKX,MKX,72640,Milwaukee WFO,WI,US,42.9666666667,-88.55,292,8,KMKX
CWMW,WMW,71722,Maniwaki,QB,CA,46.39,-75.96,170,8,CWMW
,RWD,74433,McCook Profiler,NE,US,40.12,-100.63,801,8,RWD
KCLL,CLL,,College Station,TX,US,30.58,-96.37,96,4,KCLL
KWRB,WRB,,Robins AFB,GA,US,32.64,-83.6,90,6,KWRB
KTCC,TCC,,Tucumcari,NM,US,35.19,-103.6,1235,6,KTCC
KMHE,MHE,,Mitchell,SD,US,43.77,-98.04,397,7,KMHE
KBDE,BDE,,Baudette,MN,US,48.73,-94.6,329,7,KBDE
KLEB,LEB,72611,Lebanon,NH,US,43.63,-72.3,171,6,KLEB
KFOD,FOD,72549,Fort Dodge,IA,US,42.55,-94.18,355,6,KFOD
KBRA,BRA,,Brandt,SD,US,44.6833333333,-96.85,564,9,KBRA
KLSF,LSF,72225,Fort Benning,GA,US,32.34,-85.0,71,6,KLSF
KELY,ELY,72486,Ely,NV,US,39.29,-114.85,1906,3,KELY
MMCS,CJS,,Cuidad Juarez,,MX,31.63,-106.43,1171,6,MMCS
KMCE,MCE,,Merced,CA,US,37.29,-120.52,47,6,KMCE
KASD,ASD,,Slidell,LA,US,30.35,-89.78,7,2,KASD
KLVM,LVM,,Livingston,MT,US,45.71,-110.43,1418,6,KLVM
KMWH,MWH,,Moses Lake,WA,US,47.21,-119.32,362,6,KMWH
KHTS,HTS,72425,Huntington,WV,US,38.38,-82.55,254,3,KHTS
MYGF,,78062,Freeport,,BS,26.55,-78.7,2,3,MYGF
KSCH,SCH,,Schenectady,NY,US,42.86,-73.93,115,7,KSCH
KBBG,BBG,,Branson,MO,US,36.52,-93.27,320,7,KBBG
KTOL,TOL,72536,Toledo Express,OH,US,41.61,-83.8,210,6,KTOL
CYUL,YUL,71627,Montreal/Dorval,QB,CA,45.47,-73.75,36,0,CYUL
KOAK,OAK,72493,Oakland,CA,US,37.7,-122.22,26,1,KOAK
KLND,LND,72576,Lander,WY,US,42.83,-108.73,1694,6,KLND
KSAT,SAT,72253,San Antonio,TX,US,29.54,-98.47,243,0,KSAT
,NDS,74542,Neodesha Profiler,KS,US,37.4,-95.69,266,8,NDS
KLMT,LMT,,Klamath Falls,OR,US,42.16,-121.73,1246,6,KLMT
KBJI,BJI,72755,Bemidji,MN,US,47.51,-94.93,420,6,KBJI
KEWB,EWB,,New Bedford,MA,US,41.69,-70.97,23,7,KEWB
KDCA,DCA,72405,Washington/National,VA,US,38.86,-77.03,18,1,KDCA
KSOW,SOW,,Show Low,AZ,US,34.265,-110.006,1954,6,KSOW
,VCI,74640,Vici Profiler,OK,US,36.12,-99.23,614,8,VCI
KCTB,CTB,,Cut Bank,MT,US,48.61,-112.37,1175,4,KCTB
KMSO,MSO,72773,Missoula,MT,US,46.93,-114.08,975,3,KMSO
KDRA,DRA,72387,Mercury,NV,US,36.62,-116.02,1006,5,KDRA
KUNI,UNI,,Athens,OH,US,39.212,-82.229,193,8,KUNI
K4BQ,4BQ,72667,Broadus,MT,US,45.44,-105.4,922,9,K4BQ
MUNG,,78221,Nueva Gerona,Isla De Pinos,CU,21.83,-82.783,23,7,MUNG
,MDN,74468,Jefferson Prvg,IN,US,38.88,-85.39,242,8,MDN
,AZC,74630,Aztec Profiler,NM,US,36.81,-107.88,1831,8,AZC
KIDI,IDI,,Indiana,PA,US,40.63,-79.1,429,7,KIDI
MMZC,ZCL,,Zacatecas,,MX,22.9,-102.68,2177,4,MMZC
KCRQ,CRQ,,Carlsbad,CA,US,33.14,-117.28,99,6,KCRQ
KSRR,SRR,,Ruidoso,NM,US,33.463,-105.535,2076,7,KSRR
MUBA,,78268,Baracoa Oriente,,CU,20.35,-74.5,9,7,MUBA
KVRB,VRB,,Vero Beach,FL,US,27.65,-80.42,10,4,KVRB
KBWI,BWI,72406,Baltimore,MD,US,39.19,-76.67,59,3,KBWI
KEVV,EVV,72432,Evansville,IN,US,38.05,-87.53,117,4,KEVV
CYXH,YXH,71872,Medicine Hat,AB,CA,50.03,-110.72,716,6,CYXH
KFVE,FVE,,Frenchville,ME,US,47.29,-68.32,301,7,KFVE
K4HV,4HV,72473,Hanksville,UT,US,38.38,-110.72,1314,7,K4HV
KLZK,LZK,72340,North Little Rock,AR,US,34.84,-92.25,173,8,KLZK
KDTW,DTW,72537,Detroit Metro,MI,US,42.23,-83.33,195,1,KDTW
KPIB,PIB,,Pine Belt,MS,US,31.47,-89.33,91,6,KPIB
KPDX,PDX,72698,Portland,OR,US,45.61,-122.6,7,2,KPDX
KFAR,FAR,72753,Fargo,ND,US,46.91,-96.8,277,1,KFAR
KEED,EED,72380,Needles,CA,US,34.78,-114.62,302,6,KEED
KBED,BED,74490,Bedford,MA,US,42.47,-71.29,50,2,KBED
KPMD,PMD,72382,Palmdale,CA,US,34.63,-118.08,780,6,KPMD
KSLC,SLC,72572,Salt Lake City,UT,US,40.79,-111.97,1286,0,KSLC
KEKN,EKN,72417,Elkins,WV,US,38.89,-79.85,603,4,KEKN
KIAG,IAG,,Niagara Falls,NY,US,43.11,-78.95,182,4,KIAG
KGUY,GUY,,Guymon,OK,US,36.69,-101.51,948,7,KGUY
KAJO,AJO,,Corona,CA,US,33.898,-117.602,163,8,KAJO
KTXK,TXK,,Texarkana,AR,US,33.46,-94.0,111,6,KTXK
KSTJ,STJ,72449,St. Joseph,MO,US,39.77,-94.91,247,4,KSTJ
CYQG,YQG,71538,Windsor,ON,CA,42.28,-82.97,190,6,CYQG
KPBG,PBG,,Plattsburgh,NY,US,44.651,-73.468,72,8,KPBG
KTWF,TWF,,Twin Falls,ID,US,42.48,-114.48,1266,6,KTWF
K36U,36U,,Heber,UT,US,40.48,-111.43,1718,8,K36U
CYBU,YBU,71130,Nipawin,SK,CA,53.34,-104.0,374,7,CYBU
KOMA,OMA,72550,Omaha,NE,US,41.3,-95.9,312,2,KOMA
KPHL,PHL,72408,Philadelphia,PA,US,39.89,-75.25,18,3,KPHL
KCID,CID,72545,Cedar Rapids,IA,US,41.89,-91.7,264,4,KCID
KYUM,YUM,72280,Yuma,AZ,US,32.66,-114.6,63,3,KYUM
KLMN,,74646,Lamont ARM,OK,US,36.62,-97.51,314,8,KLMN
KAMA,AMA,72363,Amarillo,TX,US,35.23,-101.7,1093,3,KAMA
KLCH,LCH,72240,Lake Charles,LA,US,30.12,-93.22,4,3,KLCH
KLCK,LCK,,Rickenbacker AFB,OH,US,39.83,-82.93,227,7,KLCK
KHLG,HLG,,Wheeling,WV,US,40.17,-80.65,372,6,KHLG
KSPF,SPF,,Spearfish,SD,US,44.47,-103.82,1303,7,KSPF
KMHV,MHV,,Mojave,CA,US,35.059,-118.151,849,7,KMHV
KLSE,LSE,72643,La Crosse,WI,US,43.88,-91.25,199,6,KLSE
KBQK,BQK,,Brunswick Glynco,GA,US,31.15,-81.47,8,7,KBQK
KGPT,GPT,,Gulfport-Biloxi,MS,US,30.4,-89.07,14,6,KGPT
KADM,ADM,,Ardmore,OK,US,34.303,-97.02,232,4,KADM
KEYW,EYW,72201,Key West,FL,US,24.55,-81.75,5,2,KEYW
KCSM,CSM,,Clinton,OK,US,35.36,-99.2,588,7,KCSM
KBDR,BDR,72504,Bridgeport,CT,US,41.18,-73.13,7,3,KBDR
KBUR,BUR,72288,Burbank-Glendale-Pasadena,CA,US,34.2,-118.36,217,6,KBUR
KMLB,MLB,72204,Melbourne,FL,US,28.11,-80.63,11,4,KMLB
KRWL,RWL,,Rawlins,WY,US,41.8,-107.2,2077,6,KRWL
KCSG,CSG,,Columbus,GA,US,32.53,-84.93,135,6,KCSG
KISO,ISO,,Kinston,NC,US,35.331,-77.609,29,7,KISO
KSBA,SBA,,Santa Barbara,CA,US,34.44,-119.83,3,6,KSBA
KCGX,CGX,,Chicago/Meigs,IL,US,41.88,-87.62,181,7,KCGX
KLBT,LBT,,Lumberton,NC,US,34.61,-79.06,37,7,KLBT
KGXA,GXA,,Palmdale,CA,US,34.5666666667,-117.666666667,923,8,KGXA
KBVI,BVI,,Beaver,PA,US,40.76,-80.33,382,6,KBVI
KGTF,GTF,72775,Great Falls,MT,US,47.48,-111.35,1119,0,KGTF
KELM,ELM,,Elmira,NY,US,42.18,-76.9,302,6,KELM
KEUG,EUG,72693,Eugene,OR,US,44.12,-123.22,114,1,KEUG
KMLC,MLC,,McAlester,OK,US,34.89,-95.78,232,6,KMLC
KDAB,DAB,,Daytona Beach,FL,US,29.18,-81.05,9,3,KDAB
CWTA,WTA,71612,McTavish,QB,CA,45.46,-73.61,29,7,CWTA
KGUP,GUP,,Gallup,NM,US,35.53,-108.78,1971,6,KGUP
,WLC,74466,Wolcott Profiler,IN,US,40.81,-87.0,212,8,WLC
KJBR,JBR,,Jonesboro,AR,US,35.83,-90.65,79,6,KJBR
KORD,ORD,72530,Chicago/O'Hare,IL,US,41.98,-87.9,200,0,KORD
KAIA,AIA,,Alliance,NE,US,42.05,-102.8,1196,7,KAIA
KMKG,MKG,72636,Muskegon,MI,US,43.18,-86.27,191,4,KMKG
KNID,NID,74612,China Lake Naws,CA,US,35.686,-117.692,696,4,KNID
KGLH,GLH,,Greenville,MS,US,33.48,-90.98,45,6,KGLH
MMMD,MID,76644,Merida,,MX,20.98,-89.65,10,5,MMMD
KMSP,MSP,72658,Minneapolis-St. Paul,MN,US,44.89,-93.22,265,0,KMSP
KCEF,CEF,74491,Chicopee,MA,US,42.21,-72.53,75,7,KCEF
CYMX,YMX,71626,Montreal/Mirabel,QB,CA,45.69,-74.04,82,1,CYMX
KMTH,MTH,,Marathon,FL,US,24.74,-81.05,2,7,KMTH
KDFW,DFW,72259,Dallas/Ft. Worth,TX,US,32.91,-97.03,174,0,KDFW
KSNY,SNY,72561,Sidney,NE,US,41.11,-102.98,1307,6,KSNY
KARA,ARA,,New Iberia,LA,US,30.03,-91.88,18,7,KARA
KFTW,FTW,,Ft. Worth/Meacham,TX,US,32.83,-97.35,214,2,KFTW
CYTS,YTS,71739,Timmins,ON,CA,48.58,-81.38,295,6,CYTS
KSDM,SDM,,San Diego/Brown Field,CA,US,32.58,-116.98,159,7,KSDM
MUVT,,78357,Las Tumas,,CU,20.95,-76.95,106,7,MUVT
KBLU,BLU,,Blue Canyon,CA,US,39.29,-120.7,1609,7,KBLU
KMCI,MCI,72446,Kansas City Intl,MO,US,39.33,-94.72,320,0,KMCI
KPFN,PFN,,Panama City,FL,US,30.2,-85.6833333333,12,8,KPFN
KIMT,IMT,,Iron Mountain,MI,US,45.81,-88.11,349,7,KIMT
KWWR,WWR,,West Woodward,OK,US,36.44,-99.52,667,7,KWWR
KHIE,HIE,,Whitefield,NH,US,44.36,-71.53,318,7,KHIE
KBIV,BIV,,Holland,MI,US,42.75,-86.1,208,7,KBIV
MMRX,REX,,Reynosa,,MX,26.02,-98.23,39,6,MMRX
KDPA,DPA,,Chicago/DuPage,IL,US,41.93,-88.25,231,6,KDPA
KSLN,SLN,,Salina,KS,US,38.8,-97.65,385,6,KSLN
KCNM,CNM,,Carlsbad,NM,US,32.34,-104.27,985,6,KCNM
KC35,C35,,Reedsburg,WI,US,43.5333333333,-89.9833333333,276,8,KC35
CYPA,YPA,71869,Prince Albert,SK,CA,53.23,-105.67,428,6,CYPA
KPQI,PQI,72713,Presque Isle,ME,US,46.69,-68.05,146,6,KPQI
KMSY,MSY,72231,New Orleans Intl,LA,US,29.98,-90.25,5,0,KMSY
KMRF,MRF,72264,Marfa,TX,US,30.38,-104.02,1481,6,KMRF
K5R0,5R0,,East Addition B3,TX,US,28.23,-93.72,0,8,K5R0
KBNA,BNA,72327,Nashville Metro,TN,US,36.12,-86.68,210,2,KBNA
KGSB,GSB,,Seymour-Johnson,NC,US,35.34,-77.97,33,6,KGSB
KRAD,RAD,,Warroad,MN,US,48.94,-95.34,327,7,KRAD
CYEG,YEG,71123,Edmonton Intl,AB,CA,53.33,-113.58,723,6,CYEG
KCKL,CKL,,Centreville,AL,US,32.91,-87.25,140,8,KCKL
KEPZ,EPZ,72364,Santa Teresa,NM,US,31.87,-106.7,1251,8,KEPZ
KHBG,HBG,,Hattiesburg,MS,US,31.265,-89.253,44,7,KHBG
KGDV,GDV,,Glendive,MT,US,47.14,-104.8,749,6,KGDV
KFPR,FPR,,Fort Pierce,FL,US,27.5,-80.37,13,7,KFPR
KEVW,EVW,,Evanston,WY,US,41.27,-111.03,2177,7,KEVW
CYVR,YVR,71892,Vancouver,BC,CA,49.19,-123.18,2,6,CYVR
KTCL,TCL,,Tuscaloosa,AL,US,33.22,-87.61,49,6,KTCL
KMRY,MRY,,Monterey Peninsula,CA,US,36.59,-121.84,66,2,KMRY
KHOT,HOT,,Hot Springs,AR,US,34.48,-93.1,162,6,KHOT
KMSL,MSL,,Muscle Shoals,AL,US,34.75,-87.61,164,6,KMSL
KCSQ,CSQ,,Creston,IA,US,41.02,-94.37,394,8,KCSQ
KILM,ILM,,Wilmington,NC,US,34.28,-77.92,9,0,KILM
KCSV,CSV,,Crossville,TN,US,35.96,-85.08,570,6,KCSV
KDAG,DAG,,Daggett,CA,US,34.88,-116.78,587,6,KDAG
KCLM,CLM,,Port Angeles,WA,US,48.12,-123.5,85,6,KCLM
CWOS,WOS,71399,Shelborne,NS,CA,43.73,-65.25,30,8,CWOS
KPLN,PLN,,Pellston,MI,US,45.58,-84.8,217,6,KPLN
KPNS,PNS,72222,Pensacola,FL,US,30.47,-87.2,38,6,KPNS
CYWG,YWG,71852,Winnipeg,MB,CA,49.93,-97.23,239,0,CYWG
KHVN,HVN,,New Haven,CT,US,41.28,-72.88,4,7,KHVN
KSUT,SUT,,Southport,NC,US,33.96,-78.07,6,7,KSUT
KLWS,LWS,72783,Lewiston,ID,US,46.39,-117.02,438,6,KLWS
KLEX,LEX,72422,Lexington,KY,US,38.05,-84.6,300,4,KLEX
KEAT,EAT,,Wenatchee,WA,US,47.41,-120.2,377,6,KEAT
KVNY,VNY,,Van Nuys,CA,US,34.21,-118.49,245,6,KVNY
KPDT,PDT,72688,Pendleton,OR,US,45.69,-118.85,462,2,KPDT
KISP,ISP,,Islip,NY,US,40.8,-73.1,43,4,KISP
KOFK,OFK,72556,Norfolk,NE,US,41.98,-97.43,470,6,KOFK
KCYS,CYS,72564,Cheyenne,WY,US,41.16,-104.82,1868,3,KCYS
MMTM,TAM,76548,Tampico,,MX,22.28,-97.87,24,6,MMTM
CYZV,YZV,71811,Sept Iles,QB,CA,50.23,-66.27,55,5,CYZV
KVAD,VAD,74781,Moody AFB,GA,US,30.97,-83.2,71,6,KVAD
KBVY,BVY,,Beverly,MA,US,42.58,-70.92,28,7,KBVY
KZZV,ZZV,,Zanesville,OH,US,39.96,-81.9,268,6,KZZV
KY22,Y22,72669,Lemmon,SD,US,45.9166666667,-102.166666667,781,7,KY22
KTPH,TPH,72485,Tonopah,NV,US,38.08,-117.08,1652,0,KTPH
KFSM,FSM,72344,Fort Smith,AR,US,35.34,-94.37,140,3,KFSM
KELD,ELD,,El Dorado,AR,US,33.23,-92.8,81,6,KELD
CYLJ,YLJ,71125,Meadow Lake,SK,CA,54.14,-108.52,480,7,CYLJ
MMML,MXL,,Mexicali,,MX,32.66,-115.49,22,6,MMML
KTUP,TUP,72332,Tupelo,MS,US,34.28,-88.77,105,4,KTUP
KOGD,OGD,72575,Ogden,UT,US,41.2,-112.01,1353,1,KOGD
KLAR,LAR,,Laramie,WY,US,41.33,-105.68,2216,6,KLAR
KSDY,SDY,,Sidney,MT,US,47.73,-104.18,605,6,KSDY
KINF,INF,,Inverness,FL,US,28.78,-82.31,20,8,KINF
KSLB,SLB,,Storm Lake,IA,US,42.6,-95.23,454,8,KSLB
KBFD,BFD,,Bradford,PA,US,41.8,-78.64,647,6,KBFD
KHBR,HBR,,Hobart,OK,US,35.01,-99.05,473,6,KHBR
KLAF,LAF,,Lafayette,IN,US,40.43,-86.93,182,4,KLAF
KHDN,HDN,72571,Hayden,CO,US,40.51,-107.25,2012,6,KHDN
KCAK,CAK,72521,Akron-Canton,OH,US,40.93,-81.43,377,6,KCAK
KOTH,OTH,72691,North Bend,OR,US,43.43,-124.25,4,6,KOTH
KELN,ELN,,Ellensburg,WA,US,47.03,-120.53,519,7,KELN
KALI,ALI,,Alice,TX,US,27.74,-98.04,53,6,KALI
KEPH,EPH,,Ephrata,WA,US,47.33,-119.52,383,6,KEPH
KCDR,CDR,,Chadron,NE,US,42.84,-103.08,1010,6,KCDR
KAKO,AKO,,Akron,CO,US,40.1743,-103.215,1421,4,KAKO
KJAC,JAC,,Jackson,WY,US,43.61,-110.73,1961,6,KJAC
KFKL,FKL,,Franklin,PA,US,41.39,-79.87,469,6,KFKL
KLDM,LDM,,Ludington,MI,US,43.96,-86.41,197,7,KLDM
,NLG,74445,Neligh Profiler,NE,US,42.19,-97.74,528,8,NLG
CYQT,YQT,71749,Thunder Bay,ON,CA,48.38,-89.32,199,0,CYQT
KTTN,TTN,,Trenton,NJ,US,40.28,-74.81,59,7,KTTN
KGGG,GGG,72247,Longview,TX,US,32.38,-94.71,107,4,KGGG
KBBD,BBD,,Brady,TX,US,31.179,-99.324,557,8,KBBD
KGYY,GYY,,Gary,IN,US,41.62,-87.42,180,4,KGYY
KCDC,CDC,,Cedar City,UT,US,37.7,-113.1,1714,4,KCDC
KBTR,BTR,,Baton Rouge,LA,US,30.54,-91.15,21,4,KBTR
KLOZ,LOZ,72329,London,KY,US,37.09,-84.04,362,6,KLOZ
KMIB,MIB,,Minot AFB,ND,US,48.43,-101.35,508,6,KMIB
KPBI,PBI,72203,West Palm Beach,FL,US,26.68,-80.12,6,3,KPBI
KTIW,TIW,,Tacoma Narrows,WA,US,47.27,-122.58,89,7,KTIW
K2G6,2G6,,Meadville,PA,US,41.63,-80.21,386,8,K2G6
KMIA,MIA,,Miami Intl,FL,US,25.82,-80.28,3,0,KMIA
KUMN,UMN,72349,Monett,MO,US,36.89,-93.9,437,8,KUMN
KGUC,GUC,,Gunnison,CO,US,38.55,-106.92,2339,6,KGUC
KALO,ALO,72548,Waterloo,IA,US,42.55,-92.4,264,4,KALO
KMGW,MGW,,Morgantown,WV,US,39.64,-79.92,378,3,KMGW
KEPM,EPM,72608,Eastport,ME,US,44.96,-67.1,23,6,KEPM
KCBE,CBE,,Cumberland,MD,US,39.615,-78.761,236,7,KCBE
KAXN,AXN,,Alexandria,MN,US,45.87,-95.41,433,3,KAXN
KENW,ENW,,Kenosha,WI,US,42.59,-87.94,219,7,KENW
KO22,O22,,Columbia,CA,US,38.02,-120.36,714,7,KO22
KBNY,BNY,,Burney,CA,US,40.89,-121.67,957,7,KBNY
KJFK,JFK,74486,New York/JFK,NY,US,40.66,-73.78,9,1,KJFK
KSFO,SFO,72494,San Francisco,CA,US,37.62,-122.36,3,0,KSFO
KSJC,SJC,74505,San Jose,CA,US,37.37,-121.93,24,6,KSJC
KLIT,LIT,,Little Rock,AR,US,34.73,-92.23,79,0,KLIT
KABR,ABR,72659,Aberdeen,SD,US,45.46,-98.43,397,3,KABR
KDPG,DPG,74003,Dugway Proving Ground,UT,US,40.21,-112.93,1326,3,KDPG
KSEP,SEP,72260,Stephenville,TX,US,32.215,-98.178,402,7,KSEP
KFNB,FNB,,Falls City,NE,US,40.08,-95.58,300,7,KFNB
KPRC,PRC,,Prescott,AZ,US,34.65,-112.42,1524,3,KPRC
KGAG,GAG,,Gage,OK,US,36.3,-99.77,668,6,KGAG
KMNM,MNM,,Menominee,MI,US,45.12,-87.63,191,7,KMNM
KLYH,LYH,72410,Lynchburg,VA,US,37.34,-79.2,295,6,KLYH
KCLT,CLT,72314,Charlotte,NC,US,35.21,-80.94,220,4,KCLT
KTEB,TEB,,Teterboro,NJ,US,40.86,-74.05,7,6,KTEB
KEKO,EKO,,Elko,NV,US,40.84,-115.78,1547,3,KEKO
MUMO,,,Moa,,CU,20.65,-74.92,5,7,MUMO
KHUT,HUT,,Hutchinson,KS,US,38.08,-97.87,467,6,KHUT
CWHI,WHI,71249,Three Hills,AB,CA,51.71,-113.22,907,7,CWHI
KSNS,SNS,,Salinas,CA,US,36.66,-121.61,30,6,KSNS
KRSW,RSW,,Fort Myers/SW Florida Intl,FL,US,26.54,-81.76,10,6,KRSW
KRNH,RNH,,New Richmond,WI,US,45.148,-92.538,304,7,KRNH
CYCG,YCG,71884,Castlegar,BC,CA,49.3,-117.63,495,6,CYCG
KWJF,WJF,,Lancaster,CA,US,34.73,-118.22,715,6,KWJF
KOKX,OKX,72501,Brookhaven/Upton,NY,US,40.8666666667,-72.8666666667,26,8,KOKX
KBZN,BZN,,Bozeman,MT,US,45.79,-111.15,1361,4,KBZN
KVPS,VPS,72221,Eglin AFB,FL,US,30.48,-86.53,26,6,KVPS
KSMN,SMN,72686,Salmon,ID,US,45.12,-113.88,1233,6,KSMN
K2G4,2G4,,Oakland,MD,US,39.58,-79.339,894,8,K2G4
KJLN,JLN,,Joplin,MO,US,37.152,-94.495,299,6,KJLN
KPOB,POB,72303,Pope AFB,NC,US,35.18,-79.02,66,6,KPOB
KGRB,GRB,72645,Green Bay,WI,US,44.48,-88.13,208,3,KGRB
KMPX,MPX,72649,Chanhassen,MN,US,44.85,-93.5666666667,288,8,KMPX
KBRL,BRL,,Burlington,IA,US,40.79,-91.12,211,6,KBRL
,CNW,74550,Conway Profiler,MO,US,37.53,-92.71,377,8,CNW
KONP,ONP,72695,Newport,OR,US,44.58,-124.05,48,6,KONP
KSMF,SMF,,Sacramento Intl,CA,US,38.7,-121.6,6,6,KSMF
KH02,H02,,High Island 334A,LA,US,28.06,-93.4,30,7,KH02
MMGM,GYM,,Guaymas,,MX,27.97,-110.93,20,5,MMGM
KMLT,MLT,,Millinocket,ME,US,45.66,-68.68,123,6,KMLT
KLIC,LIC,,Limon,CO,US,39.2734,-103.667,1630,4,KLIC
KTCM,TCM,74206,McChord AFB,WA,US,47.09,-122.42,83,6,KTCM
CWNL,WNL,71462,Great Duck Is,ON,CA,45.64,-82.97,183,7,CWNL
MUCL,,,Cayo Largo Del Sur,,CU,21.63,-81.55,5,7,MUCL
KBML,BML,72616,Berlin,NH,US,44.59,-71.18,345,7,KBML
KCRE,CRE,,North Myrtle Beach,SC,US,33.81,-78.72,10,6,KCRE
KHMM,HMM,,Hamilton,MT,US,46.25,-114.15,1110,9,KHMM
KDET,DET,,Detroit City,MI,US,42.43,-83.02,190,3,KDET
KGWX,GWX,,Columbus AFB,MS,US,33.92,-88.26,108,8,KGWX
MMAS,AGU,76571,Aguascalientes,,MX,21.88,-102.3,1863,6,MMAS
KE28,E28,74733,White Sands Space Harbor,NM,US,32.94,-106.41,1192,8,KE28
KHNR,HNR,,Harlan,IA,US,41.584,-95.34,375,8,KHNR
KBDG,BDG,,Blanding,UT,US,37.5833333333,-109.466666667,1788,7,KBDG
KIXA,IXA,,Roanoke Rapids,NC,US,36.33,-77.635,44,8,KIXA
KE74,E74,,Safford,AZ,US,32.83,-109.68,900,8,KE74
KRUE,RUE,,Russellville,AR,US,35.26,-93.09,115,7,KRUE
KFXE,FXE,,Fort Lauderdale Executive,FL,US,26.2,-80.17,6,7,KFXE
CWQG,WQG,71151,Valcartier,QB,CA,46.91,-71.5,168,8,CWQG
KSPI,SPI,72439,Springfield,IL,US,39.86,-89.67,181,6,KSPI
KOTM,OTM,,Ottumwa,IA,US,41.11,-92.45,256,6,KOTM
CWLB,WLB,71931,Lac La Biche,AB,CA,54.78,-112.02,567,7,CWLB
KVQQ,VQQ,,Jacksonville/Cecil Field NAS,FL,US,30.219,-81.877,25,7,KVQQ
KMTN,MTN,,Martin,MD,US,39.34,-76.42,7,6,KMTN
KSSI,SSI,,Brunswick,GA,US,31.15,-81.38,6,6,KSSI
CYXU,YXU,71623,London,ON,CA,43.04,-81.15,278,6,CYXU
KPHN,PHN,,St. Clair,MI,US,42.92,-82.53,198,7,KPHN
MUCU,,78264,Santiago De Cuba,Oriente,CU,19.966,-75.85,76,6,MUCU
KOLM,OLM,72792,Olympia,WA,US,46.98,-122.9,58,6,KOLM
KRWI,RWI,,Rocky Mt.Wilson,NC,US,35.86,-77.88,47,6,KRWI
KGRI,GRI,72552,Grand Island,NE,US,40.98,-98.32,561,6,KGRI
KBUF,BUF,72528,Buffalo,NY,US,42.94,-78.73,211,0,KBUF
KCAD,CAD,,Cadillac,MI,US,44.29,-85.42,398,7,KCAD
KGLS,GLS,72242,Galveston,TX,US,29.27,-94.87,6,6,KGLS
KBMX,BMX,72230,Birmingham WFO,AL,US,33.1666666667,-86.7666666667,197,8,KBMX
KTVR,TVR,,Vicksburg,MS,US,32.35,-91.03,26,7,KTVR
KMOP,MOP,,Mount Pleasant,MI,US,43.62,-84.74,230,7,KMOP
KSTC,STC,72655,St. Cloud,MN,US,45.55,-94.07,314,3,KSTC
KSPS,SPS,72351,Sheppard AFB,TX,US,33.98,-98.48,308,4,KSPS
KLWT,LWT,,Lewiston,MT,US,47.05,-109.45,1270,6,KLWT
KECG,ECG,,Elizabeth City,NC,US,36.26,-76.18,11,6,KECG
KILN,ILN,72426,Wilmington,OH,US,39.43,-83.8,322,3,KILN
KSJT,SJT,72263,San Angelo,TX,US,31.38,-100.5,576,5,KSJT
KHMN,HMN,74732,Holloman AFB,NM,US,32.86,-106.1,1248,4,KHMN
KFST,FST,,Fort Stockton,TX,US,30.93,-102.82,883,6,KFST
CYQL,YQL,71874,Lethbridge,AB,CA,49.64,-112.8,929,6,CYQL
KGRF,GRF,74207,Fort Lewis,WA,US,47.09,-122.58,92,6,KGRF
KRKD,RKD,,Rockland,ME,US,44.08,-69.12,17,7,KRKD
K48I,48I,,Sutton,WV,US,38.687,-80.652,397,8,K48I
KMSS,MSS,,Massena,NY,US,44.94,-74.85,66,6,KMSS
KPNE,PNE,,North Philadelphia,PA,US,40.09,-75.02,28,4,KPNE
KGZH,GZH,,Evergreen,AL,US,31.42,-87.04,78,7,KGZH
KDHN,DHN,,Dothan,AL,US,31.32,-85.45,113,6,KDHN
KEAU,EAU,,Eau Claire,WI,US,44.88,-91.48,276,4,KEAU
KHFD,HFD,,Hartford/Brainard,CT,US,41.73,-72.65,4,4,KHFD
KOUN,OUN,72357,Norman,OK,US,35.246,-97.472,357,3,KOUN
CYHM,YHM,71263,Hamilton,ON,CA,43.17,-79.94,238,6,CYHM
KGLD,GLD,72465,Goodland,KS,US,39.38,-101.7,1113,3,KGLD
KBFM,BFM,,Mobile Downtown,AL,US,30.64,-88.07,20,7,KBFM
CYYB,YYB,71731,North Bay,ON,CA,46.38,-79.42,371,6,CYYB
KIPT,IPT,72514,Williamsport,PA,US,41.26,-76.92,164,6,KIPT
,MBW,74431,Medicine Bow Profiler,WY,US,41.9,-106.25,2068,8,MBW
KBTL,BTL,,Battle Creek,MI,US,42.3,-85.25,290,6,KBTL
KP11,P11,72758,Devils Lake,ND,US,48.11,-98.87,443,7,KP11
KYKM,YKM,72781,Yakima Air Termi,WA,US,46.56,-120.53,324,3,KYKM
KUTS,UTS,,Huntsville,TX,US,30.74,-95.59,104,7,KUTS
KLLQ,LLQ,,Monticello,AR,US,33.64,-91.75,83,7,KLLQ
KAGR,AGR,74796,Avon Park,FL,US,27.65,-81.3333333333,20,8,KAGR
KDUG,DUG,,Douglas,AZ,US,31.45,-109.6,1265,6,KDUG
KABQ,ABQ,72365,Albuquerque,NM,US,35.05,-106.62,1618,0,KABQ
,MRR,74437,Merriman Profiler,NE,US,42.89,-101.69,1010,8,MRR
KGCC,GCC,72665,Gillette,WY,US,44.36,-105.53,1320,6,KGCC
CYAH,YAH,71823,La Grande Iv,QB,CA,53.76,-73.67,306,5,CYAH
KRHI,RHI,,Rhinelander,WI,US,45.63,-89.47,485,6,KRHI
KMFD,MFD,,Mansfield,OH,US,40.83,-82.52,395,6,KMFD
KVLD,VLD,,Valdosta,GA,US,30.79,-83.28,62,6,KVLD
KCKN,CKN,,Crookston,MN,US,47.86,-96.62,273,7,KCKN
KFLG,FLG,72375,Flagstaff,AZ,US,35.14,-111.67,2134,2,KFLG
KMLU,MLU,,Monroe,LA,US,32.51,-92.04,29,6,KMLU
MMSD,SJD,,San Jose Del Cabo,,MX,23.15,-109.7,109,6,MMSD
KDEC,DEC,,Decatur,IL,US,39.84,-88.87,207,4,KDEC
KOPF,OPF,,Miami/Opa Locka,FL,US,25.91,-80.28,16,1,KOPF
KBLH,BLH,,Blythe,CA,US,33.62,-114.72,119,6,KBLH
KSOA,SOA,,Sonora,TX,US,30.586,-100.649,652,7,KSOA
KILG,ILG,,Wilmington,DE,US,39.68,-75.6,28,4,KILG
KINK,INK,,Wink,TX,US,31.79,-103.2,855,6,KINK
MUMZ,,78256,Manzanillo,,CU,20.2833333333,-77.1,60,7,MUMZ
KBIH,BIH,72480,Bishop,CA,US,37.37,-118.37,1253,6,KBIH
KLUK,LUK,,Cincinnati/Lunken,OH,US,39.1,-84.42,155,1,KLUK
KFLP,FLP,,Flippin,AR,US,36.29,-92.59,219,7,KFLP
KAPX,APX,72634,Gaylord/Alpena,MI,US,44.9,-84.7166666667,446,8,KAPX
KRSL,RSL,,Russell,KS,US,38.87,-98.81,567,6,KRSL
KINL,INL,72747,International Falls,MN,US,48.58,-93.38,360,1,KINL
KPYM,PYM,,Plymouth,MA,US,41.91,-70.73,43,7,KPYM
KP61,P61,,Tofte,MN,US,47.63,-90.92,411,7,KP61
KONT,ONT,,Ontario,CA,US,34.06,-117.6,274,1,KONT
KBDL,BDL,72508,Hartford/Bradley,CT,US,41.94,-72.68,60,6,KBDL
KP59,P59,,Copper Harbor,MI,US,47.45,-87.9,190,7,KP59
KGRR,GRR,72635,Grand Rapids,MI,US,42.89,-85.52,237,3,KGRR
KGCN,GCN,72378,Grand Canyon,AZ,US,35.96,-112.15,2016,4,KGCN
KRNO,RNO,72488,Reno/Cannon,NV,US,39.51,-119.78,1342,2,KRNO
KREV,REV,72489,Reno WFO,NV,US,39.5666666667,-119.8,1516,8,KREV
KHYA,HYA,,Hyannis,MA,US,41.68,-70.28,22,6,KHYA
KATL,ATL,72219,Atlanta/Hartsfield,GA,US,33.66,-84.42,296,0,KATL
KBNO,BNO,72683,Burns,OR,US,43.58,-118.95,1264,6,KBNO
KMBY,MBY,,Moberly,MO,US,39.464,-92.427,264,8,KMBY
MUCA,,78346,Venezuela,,CU,22.0333333333,-78.7833333333,101,6,MUCA
KDRT,DRT,72261,Del Rio,TX,US,29.38,-100.92,313,2,KDRT
KFSI,FSI,72355,Fort Sill,OK,US,34.66,-98.4,362,7,KFSI
KDHT,DHT,,Dalhart,TX,US,36.03,-102.55,1217,6,KDHT
MYGW,,78061,West End,Grand Bahama,BS,26.7,-78.966,4,7,MYGW
KSWF,SWF,,Stewart,NY,US,41.51,-74.1,150,6,KSWF
KMCW,MCW,,Mason City,IA,US,43.16,-93.33,369,6,KMCW
KPVU,PVU,,Provo,UT,US,40.23,-111.72,1369,6,KPVU
KHLD,HLD,,Hiland,WY,US,43.09,-107.32,1846,9,KHLD
KMEI,MEI,72234,Meridian,MS,US,32.34,-88.75,89,6,KMEI
MMLP,LAP,,La Paz,,MX,24.07,-110.37,21,1,MMLP
KCPR,CPR,72569,Casper,WY,US,42.93,-106.47,1621,6,KCPR
KPIR,PIR,,Pierre,SD,US,44.39,-100.28,526,3,KPIR
KISN,ISN,72767,Williston,ND,US,48.16,-103.6,579,6,KISN
MMMZ,MZT,,Mazatlan,,MX,23.17,-106.27,10,5,MMMZ
KABY,ABY,72216,Albany,GA,US,31.54,-84.18,58,6,KABY
KFOE,FOE,,Topeka/Forbes,KS,US,38.96,-95.67,320,6,KFOE
KCHS,CHS,72208,Charleston AFB,SC,US,32.91,-80.03,13,1,KCHS
KCOE,COE,,Coeur D'Alene,ID,US,47.78,-116.82,707,4,KCOE
KMEM,MEM,72334,Memphis,TN,US,35.04,-89.98,86,2,KMEM
KRDG,RDG,,Reading,PA,US,40.38,-75.97,109,6,KRDG
KSEA,SEA,72793,Seattle-Tacoma Intl,WA,US,47.44,-122.31,136,0,KSEA
KBOS,BOS,72509,Boston,MA,US,42.38,-71.03,6,0,KBOS
KBID,BID,,Block Island,RI,US,41.18,-71.58,33,7,KBID
KAUG,AUG,,Augusta,ME,US,44.32,-69.8,109,4,KAUG
KBMG,BMG,,Bloomington,IN,US,39.16,-86.6,222,7,KBMG
KPSN,PSN,,Palestine,TX,US,31.83,-95.71,117,7,KPSN
KJMR,JMR,,Mora,MN,US,45.89,-93.27,309,7,KJMR
KTRI,TRI,,Bristol,TN,US,36.48,-82.4,474,4,KTRI
KBIL,BIL,72677,Billings,MT,US,45.8,-108.53,1091,6,KBIL
K92Q,92Q,,Bodega Bay,CA,US,38.32,-122.99,41,8,K92Q
CYAW,YAW,71601,Halifax,NS,CA,44.64,-63.5,51,6,CYAW
KWAL,WAL,72402,Wallops Island,VA,US,37.94,-75.47,14,5,KWAL
KRWF,RWF,,Redwood Falls,MN,US,44.55,-95.08,311,6,KRWF
MMCU,CUU,76225,Chihuahua,,MX,28.7,-105.97,1372,1,MMCU
KDIK,DIK,,Dickinson,ND,US,46.79,-102.8,788,6,KDIK
CWLM,WLM,71200,Victoria,BC,CA,48.42,-123.32,70,7,CWLM
KCMI,CMI,,Champaign/Urbana,IL,US,40.04,-88.28,228,6,KCMI
KSBY,SBY,,Salisbury,MD,US,38.34,-75.5,19,4,KSBY
KPNA,PNA,,Pinedale,WY,US,42.795,-109.807,2160,8,KPNA
KHUF,HUF,72437,Terre Haute,IN,US,39.46,-87.3,179,6,KHUF
KEAX,EAX,,Pleasant Hill,MO,US,38.8166666667,-94.2666666667,303,8,KEAX
KPWD,PWD,,Plentywood,MT,US,48.7833333333,-104.516666667,686,8,KPWD
KEWR,EWR,72502,Newark,NJ,US,40.71,-74.17,7,2,KEWR
KAPA,APA,,Denver/Centennial,CO,US,39.5599,-104.848,1775,4,KAPA
KGON,GON,,Groton-New London,CT,US,41.33,-72.05,3,7,KGON
KOEL,OEL,,Oakley,KS,US,39.16,-100.89,938,9,KOEL
K3LF,3LF,,Litchfield,IL,US,39.163,-89.675,210,8,K3LF
KAPN,APN,72639,Alpena,MI,US,45.08,-83.57,210,4,KAPN
CYQR,YQR,71863,Regina,SK,CA,50.44,-104.67,577,0,CYQR
KPHP,PHP,,Philip,SD,US,44.05,-101.6,672,7,KPHP
KANJ,ANJ,72734,Sault Ste. Marie,MI,US,46.485,-84.366,218,0,KANJ
KGLY,GLY,,Clinton,MO,US,38.35,-93.77,238,8,KGLY
MMTC,TRC,76382,Torreon,,MX,25.53,-103.45,1124,5,MMTC
KY26,Y26,,Mobridge,SD,US,45.54,-100.43,508,8,KY26
KTOP,TOP,72456,Topeka/Billard,KS,US,39.08,-95.62,268,3,KTOP
KGNC,GNC,,Seminole,TX,US,32.675,-102.653,1010,7,KGNC
KSSC,SSC,74790,Shaw AFB,SC,US,33.98,-80.47,74,6,KSSC
KODX,ODX,,Ord,NE,US,41.62,-98.95,631,7,KODX
KSAV,SAV,72207,Savannah,GA,US,32.14,-81.2,14,4,KSAV
KHQM,HQM,,Hoquiam,WA,US,46.98,-123.97,7,4,KHQM
KHPX,HPX,,Hopkinton,KY,US,36.73,-87.31,177,8,KHPX
KPGV,PGV,,Pitt-Greenville,NC,US,35.63,-77.4,8,7,KPGV
KFFC,FFC,72215,Peachtree City,GA,US,33.35,-84.56,262,1,KFFC
KRBG,RBG,72690,Roseburg,OR,US,43.23,-123.37,154,7,KRBG
CYQA,YQA,71630,Muskoka,ON,CA,44.98,-79.3,282,6,CYQA
,OKO,74769,Okolona Profiler,MS,US,34.04,-88.81,99,8,OKO
KJHW,JHW,,Jamestown,NY,US,42.16,-79.25,525,6,KJHW
MYNN,,78073,Nassau,,BS,25.05,-77.47,3,3,MYNN
KMHK,MHK,,Manhattan,KS,US,39.16,-96.67,317,4,KMHK
KAFJ,AFJ,,Washington,PA,US,40.14,-80.29,361,7,KAFJ
KYKN,YKN,,Yankton,SD,US,42.92,-97.38,398,7,KYKN
KRQB,RQB,,Big Rapids,MI,US,43.72,-85.5,302,7,KRQB
KJAX,JAX,72206,Jacksonville Intl,FL,US,30.4941,-81.6879,10,0,KJAX
KLBF,LBF,72562,North Platte,NE,US,41.14,-100.68,847,3,KLBF
KSDF,SDF,72423,Louisville,KY,US,38.19,-85.73,146,6,KSDF
KIGM,IGM,72370,Kingman,AZ,US,35.28,-113.95,1032,7,KIGM
KINT,INT,72319,Winston Salem,NC,US,36.13,-80.22,291,4,KINT
KSHV,SHV,72248,Shreveport,LA,US,32.45,-93.83,83,3,KSHV
KGTB,GTB,74370,Fort Drum,NY,US,44.05,-75.74,207,6,KGTB
KSGU,SGU,,Saint George,UT,US,37.09,-113.6,896,6,KSGU
KEND,END,,Vance AFB,OK,US,36.34,-97.9,398,4,KEND
KLWB,LWB,,Lewisburg,WV,US,37.88,-80.4,702,6,KLWB
KIAD,IAD,72403,Washington/Dulles,VA,US,38.96,-77.45,93,0,KIAD
KBTV,BTV,72617,Burlington,VT,US,44.48,-73.15,105,3,KBTV
KHOU,HOU,,Houston/Hobby,TX,US,29.65,-95.28,36,3,KHOU
KALW,ALW,72788,Walla Walla,WA,US,46.09,-118.29,363,6,KALW
KIWD,IWD,,Ironwood,MI,US,46.54,-90.13,375,7,KIWD
CYPQ,YPQ,,Peterborough,ON,CA,44.23,-78.37,191,6,CYPQ
KBGM,BGM,72515,Binghamton,NY,US,42.23,-75.98,490,3,KBGM
KFYV,FYV,,Fayetteville,AR,US,36.01,-94.17,379,4,KFYV
KSAW,SAW,,K I Sawyer AFB,MI,US,46.36,-87.4,372,8,KSAW
KWMC,WMC,72583,Winnemucca,NV,US,40.91,-117.8,1310,3,KWMC
KMDW,MDW,72534,Chicago/Midway,IL,US,41.79,-87.75,188,1,KMDW
CYXZ,YXZ,71738,Wawa,ON,CA,47.98,-84.78,287,6,CYXZ
KSNA,SNA,,Santa Ana,CA,US,33.68,-117.87,16,6,KSNA
KDDC,DDC,72451,Dodge City,KS,US,37.78,-99.97,789,0,KDDC
KGRK,GRK,,Fort Hood,TX,US,31.07,-97.83,309,5,KGRK
KRST,RST,72644,Rochester,MN,US,43.904,-92.492,403,6,KRST
KPRB,PRB,,Paso Robles,CA,US,35.68,-120.63,245,6,KPRB
K4BL,4BL,72472,Blanding,UT,US,37.62,-109.47,1840,7,K4BL
KSGF,SGF,72440,Springfield,MO,US,37.23,-93.4,390,5,KSGF
KMIW,MIW,,Marshalltown,IA,US,42.07,-92.87,296,7,KMIW
KGWO,GWO,,Greenwood,MS,US,33.51,-90.08,44,4,KGWO
KDEN,DEN,72565,Denver Intl,CO,US,39.8466,-104.656,1640,0,KDEN
KJCT,JCT,74740,Junction,TX,US,30.5,-99.77,522,6,KJCT
KFAY,FAY,,Fayetteville,NC,US,34.99,-78.88,55,4,KFAY
KAQQ,AQQ,,Apalachicola,FL,US,29.7333333333,-85.0333333333,5,8,KAQQ
KD07,D07,,Faith,SD,US,45.04,-102.02,784,7,KD07
KSMX,SMX,72394,Santa Maria Publ,CA,US,34.91,-120.45,74,6,KSMX
KHIO,HIO,,Hillsboro,OR,US,45.54,-122.95,68,6,KHIO
KLBE,LBE,,Latrobe,PA,US,40.29,-79.4,361,6,KLBE
KMMU,MMU,,Morristown,NJ,US,40.799,-74.415,57,7,KMMU
CYQI,YQI,71603,Yarmouth,NS,CA,43.84,-66.08,43,5,CYQI
,LTH,74551,Lathrop Profiler,MO,US,39.6,-94.13,293,8,LTH
KLBX,LBX,,Angleton-Lake Jackson,TX,US,29.12,-95.47,6,7,KLBX
KAND,AND,,Anderson,SC,US,34.49,-82.71,239,6,KAND
KROA,ROA,72411,Roanoke,VA,US,37.33,-79.97,362,3,KROA
KLGB,LGB,72297,Long Beach,CA,US,33.83,-118.15,10,6,KLGB
KMBS,MBS,,Saginaw,MI,US,43.53,-84.08,202,6,KMBS
KBPT,BPT,72241,Beaumont/Port Arthur,TX,US,29.95,-94.02,5,6,KBPT
KHTH,HTH,,Hawthorne,NV,US,38.55,-118.63,1285,8,KHTH
KDAL,DAL,72258,Dallas/Love,TX,US,32.86,-96.85,158,1,KDAL
KSVE,SVE,72584,Susanville,CA,US,40.39,-120.57,1263,7,KSVE
CWLO,WLO,71853,Shilo,MB,CA,49.79,-99.65,373,7,CWLO
KNTD,NTD,72391,Pt. Mugu NAS,CA,US,34.12,-119.12,4,6,KNTD
MMSP,SLP,76539,San Luis Potosi,,MX,22.15,-100.98,1903,6,MMSP
KERI,ERI,72526,Erie,PA,US,42.08,-80.18,222,4,KERI
KROW,ROW,72268,Roswell,NM,US,33.31,-104.51,1112,4,KROW
KBLF,BLF,,Bluefield,WV,US,37.3,-81.22,873,6,KBLF
KGSO,GSO,72317,Greensboro,NC,US,36.01,-79.95,275,3,KGSO
KMIV,MIV,,Millville,NJ,US,39.37,-75.07,23,6,KMIV
KUIN,UIN,,Quincy,IL,US,39.94,-91.2,234,6,KUIN
KORH,ORH,,Worcester,MA,US,42.28,-71.87,304,6,KORH
KUNV,UNV,,State College,PA,US,40.86,-77.83,378,3,KUNV
KSLO,SLO,,Salem,IL,US,38.65,-88.97,175,7,KSLO
KISM,ISM,,Orlando/Kissimmee,FL,US,28.29,-81.437,25,7,KISM
KOQT,OQT,,Oak Ridge,TN,US,35.99,-84.28,330,7,KOQT
KCVG,CVG,72421,Cincinnati/Northern Kentucky,OH,US,39.05,-84.67,269,0,KCVG
,SLA,74449,Slater Profiler,IA,US,41.86,-93.77,299,8,SLA
KBYI,BYI,,Burley,ID,US,42.54,-113.77,1264,6,KBYI
KO54,O54,,Weaverville,CA,US,40.77,-122.97,1046,8,KO54
KDLN,DLN,,Dillon,MT,US,45.26,-112.47,1744,6,KDLN
KOKC,OKC,72353,Oklahoma City,OK,US,35.41,-97.6,390,2,KOKC
KFWA,FWA,72533,Fort Wayne,IN,US,41.01,-85.2,248,3,KFWA
K1V4,1V4,72614,St. Johnsbury,VT,US,44.42,-72.02,210,7,K1V4
KDRO,DRO,,Durango,CO,US,37.16,-107.75,2035,4,KDRO
KYNG,YNG,72525,Youngstown,OH,US,41.27,-80.67,360,6,KYNG
MMMA,MAM,,Matamoros,,MX,25.77,-97.53,8,6,MMMA
KCMH,CMH,72428,Columbus,OH,US,40.01,-82.88,247,4,KCMH
KXMR,XMR,74794,Cocoa Beach,FL,US,28.468,-80.567,3,8,KXMR
KLEW,LEW,,Auburn-Lewiston,ME,US,44.05,-70.29,88,7,KLEW
KAWH,AWH,,Wild Horse Reservior,NV,US,41.67,-115.79,1902,7,KAWH
KMLD,MLD,,Malad City,ID,US,42.18,-112.32,1373,6,KMLD
KDVN,DVN,74455,Davenport,IA,US,41.62,-90.58,230,3,KDVN
KBFL,BFL,72384,Bakersfield,CA,US,35.43,-119.05,151,6,KBFL
KGFK,GFK,,Grand Forks,ND,US,47.96,-97.18,258,2,KGFK
KBAX,BAX,,Bad Axe,MI,US,43.79,-82.99,234,7,KBAX
KART,ART,,Watertown,NY,US,44.01,-76.02,100,6,KART
KFMH,FMH,,Falmouth,MA,US,41.659,-70.522,40,7,KFMH
KLBB,LBB,72267,Lubbock,TX,US,33.6658,-101.823,993,0,KLBB
KIJD,IJD,,Willimantic,CT,US,41.75,-72.18,75,7,KIJD
KHUL,HUL,,Houlton,ME,US,46.14,-67.78,150,2,KHUL
KRZR,RZR,,Cleveland,TN,US,35.21,-84.75,262,7,KRZR
CYTH,YTH,71079,Thompson,MB,CA,55.8,-97.87,218,6,CYTH
KFMN,FMN,,Farmington,NM,US,36.76,-108.23,1685,6,KFMN
KP68,P68,,Eureka,NV,US,39.604,-116.005,1809,9,KP68
KGEG,GEG,72785,Spokane Intl,WA,US,47.64,-117.53,735,1,KGEG
KGGW,GGW,72768,Glasgow,MT,US,48.21,-106.63,694,2,KGGW
KMCB,MCB,,McComb,MS,US,31.18,-90.47,124,6,KMCB
KRDM,RDM,,Redmond,OR,US,44.28,-121.15,938,6,KRDM
KMYR,MYR,74791,Myrtle Beach AFB,SC,US,33.69,-78.93,8,6,KMYR
KHIB,HIB,,Hibbing,MN,US,47.39,-92.85,412,3,KHIB
KITH,ITH,,Ithaca,NY,US,42.48,-76.47,335,6,KITH
KENL,ENL,,Centralia,IL,US,38.52,-89.08,163,7,KENL
MUCM,,78255,Camaguey,,CU,21.416,-77.85,122,6,MUCM
CYQD,YQD,71867,The Pas,MB,CA,53.98,-101.1,271,5,CYQD
KJHN,JHN,,Johnson City,KS,US,37.5833333333,-101.733333333,1013,8,KJHN
KRIC,RIC,72401,Richmond,VA,US,37.51,-77.31,50,4,KRIC
KRAP,RAP,,Rapid City,SD,US,44.056,-103.054,965,2,KRAP
KILX,ILX,74560,Lincoln,IL,US,40.15,-89.3333333333,177,8,KILX
KPTK,PTK,,Pontiac,MI,US,42.67,-83.42,299,2,KPTK
KCLE,CLE,72524,Cleveland,OH,US,41.43,-81.87,233,3,KCLE
KPVD,PVD,72507,Providence,RI,US,41.73,-71.43,16,3,KPVD
CYLH,,71697,Lansdowne House,ON,CA,52.2,-87.9333333333,254,7,CYLH
KOGB,OGB,,Orangeburg,SC,US,33.47,-80.85,59,7,KOGB
KHAT,HAT,72302,Cape Hatteras,NC,US,35.28,-75.55,3,8,KHAT
KTRM,TRM,,Thermal,CA,US,33.64,-116.17,-35,6,KTRM
,WSM,74629,White Sands Profiler,NM,US,32.4,-106.35,1315,8,WSM
KBPK,BPK,,Mountain Home,AR,US,36.37,-92.47,280,7,KBPK
K9V9,9V9,72653,Chamberlain,SD,US,43.8,-99.32,519,7,K9V9
KHYS,HYS,,Hays,KS,US,38.86,-99.27,609,4,KHYS
KIPL,IPL,,Imperial,CA,US,32.84,-115.57,-17,6,KIPL
,JTN,74735,Jayton Profiler,TX,US,33.0,-101.01,724,8,JTN
MMTJ,TIJ,,Tijuana,,MX,32.55,-116.97,152,6,MMTJ
KESF,ESF,,Alexandria,LA,US,31.4,-92.3,28,6,KESF
KDSD,DSD,,Redmond(Vor),OR,US,44.25,-121.3,938,8,KDSD
KFSD,FSD,72651,Sioux Falls,SD,US,43.59,-96.74,436,2,KFSD
KOSC,OSC,,Wurtsmith AFB,MI,US,44.46,-83.4,193,7,KOSC
KU28,U28,72477,Green River,UT,US,39.01,-110.15,1241,7,KU28
KBHB,BHB,,Bar Harbor,ME,US,44.46,-68.37,26,7,KBHB
KEET,EET,,Alabaster,AL,US,33.18,-86.78,173,3,KEET
KPUC,PUC,72470,Price,UT,US,39.62,-110.75,2091,7,KPUC
KBRO,BRO,72250,Brownsville,TX,US,25.9,-97.43,7,0,KBRO
KBMI,BMI,,Bloomington/Normal,IL,US,40.48,-88.93,267,7,KBMI
KSTS,STS,,Santa Rosa,CA,US,38.51,-122.81,39,6,KSTS
KRKS,RKS,72574,Rock Springs,WY,US,41.61,-109.07,2060,6,KRKS
,WDL,74341,Wood Lake Profiler,MN,US,44.68,-95.37,313,8,WDL
KCIN,CIN,,Carroll,IA,US,41.98,-94.75,383,8,KCIN
CYQM,YQM,71705,Moncton,NB,CA,46.12,-64.68,71,6,CYQM
KBAB,BAB,,Beale AFB,CA,US,39.14,-121.44,34,6,KBAB
KPYX,PYX,,Perryton,TX,US,36.45,-100.84,889,8,KPYX
KAST,AST,72791,Astoria,OR,US,46.16,-123.88,3,4,KAST
KPOE,POE,72239,Fort Polk,LA,US,31.05,-93.18,101,4,KPOE
KCQV,CQV,,Colville,WA,US,48.55,-117.89,572,7,KCQV
