icao,iata,synop,name,state,country,lat,lon,elev,priority
PALG,KLG,,Kalskag,AK,US,61.54,-160.34,17,7
KEET,EET,,Alabaster/Shelby Co,AL,US,33.18,-86.78,173,3
KANB,ANB,,Anniston Metro,AL,US,33.59,-85.85,183,6
KBHM,BHM,72228,Birmingham Intl,AL,US,33.56,-86.75,197,4
KDHN,DHN,,Dothan,AL,US,31.32,-85.45,113,6
KGZH,GZH,,Evergreen,AL,US,31.42,-87.04,78,7
KHSV,HSV,72323,Huntsville/Madis,AL,US,34.66,-86.77,191,4
KLOR,LOR,,Ft Rucker/Ozark,AL,US,31.356,-85.751,74,7
KBFM,BFM,,Mobile Downtown,AL,US,30.64,-88.07,20,7
KMOB,MOB,72223,Mobile/Bates Field,A,US,30.68,-88.25,63,3
KMGM,MGM,72226,Montgomery/Danne,AL,US,32.3,-86.4,63,4
KMSL,MSL,,Muscle Shoals,AL,US,34.75,-87.61,164,6
KTCL,TCL,,Tuscaloosa Muni,AL,US,33.22,-87.61,49,6
KBVX,BVX,,Batesville,AR,US,35.73,-91.65,141,7
KELD,ELD,,El Dorado/Gdwin,AR,US,33.23,-92.8,81,6
KFYV,FYV,,Fayetteville,AR,US,36.01,-94.17,379,4
KFLP,FLP,,Flippin/Marion Co Regnl,AR,US,36.29,-92.59,219,7
KFSM,FSM,72344,Fort Smith Muni,AR,US,35.34,-94.37,140,3
KHRO,HRO,,Harrison,AR,US,36.28,-93.15,417,6
KHOT,HOT,,Hot Springs,AR,US,34.48,-93.1,162,6
KJBR,JBR,,Jonesboro Muni,AR,US,35.83,-90.65,79,6
KLIT,LIT,,Little Rock/Adams Field,AR,US,34.73,-92.23,79,0
KLLQ,LLQ,,Monticello Muni/Ellis Field,AR,US,33.64,-91.75,83,7
KBPK,BPK,,Mountain Home/Baxter Co Regnl,AR,US,36.37,-92.47,280,7
KLZK,LZK,72340,North Little Rock,AR,US,34.84,-92.25,173,8
KPBF,PBF,,Pine Bluff/Gridr,AR,US,34.18,-91.93,62,6
KRUE,RUE,,Russellville Rgnl,AR,US,35.26,-93.09,115,7
KTXK,TXK,,Texarkana Muni,AR,US,33.46,-94.0,111,6
KPHX,PHX,72278,Phoenix/Sky Harb,AZ,US,33.44,-112.02,336,0
KTUS,TUS,,Tucson Intl Airport,AZ,US,32.12,-110.93,776,2
KDUG,DUG,,Douglas,AZ,US,31.45,-109.6,1265,6
KFLG,FLG,72375,Flagstaff/Pullim,AZ,US,35.14,-111.67,2134,2
KFHU,FHU,72273,Fort Huachuca,AZ,US,31.58,-110.33,1438,6
KGCN,GCN,72378,Grand Canyon,AZ,US,35.96,-112.15,2016,4
KIGM,IGM,72370,Kingman,AZ,US,35.28,-113.95,1032,7
KPGA,PGA,72371,Page Muni,AZ,US,36.94,-111.45,1307,3
KPRC,PRC,,Prescott/Ernest A Love Fld,AZ,US,34.65,-112.42,1524,3
KSOW,SOW,,Show Low,AZ,US,34.265,-110.006,1954,6
KSJN,SJN,,St Johns Industrial Air Park,AZ,US,34.52,-109.38,1745,6
KINW,INW,72374,Winslow (Autob),AZ,US,35.03,-110.73,1490,4
KYUM,YUM,72280,Yuma Intl Airport,AZ,US,32.66,-114.6,63,3
KAAT,AAT,,Alturas Muni,CA,US,41.491,-120.564,1331,7
KACV,ACV,,Arcata/Eureka,CA,US,40.99,-124.1,67,6
KBFL,BFL,72384,Bakersfield/Mead,CA,US,35.43,-119.05,151,6
KBAB,BAB,,Beale AFB/Marysv,CA,US,39.14,-121.44,34,6
KBIH,BIH,72480,Bishop,CA,US,37.37,-118.37,1253,6
KBLH,BLH,,Blythe,CA,US,33.62,-114.72,119,6
KBUR,BUR,72288,Burbank-Glendale-Pasadena,CA,US,34.2,-118.36,217,6
KBNY,BNY,,Burney,CA,US,40.89,-121.67,957,7
KCRQ,CRQ,,Carlsbad,CA,US,33.14,-117.28,99,6
KCIC,CIC,72497,Chico,CA,US,39.79,-121.85,73,7
KNID,NID,74612,China Lake Naws,CA,US,35.686,-117.692,696,4
KCCR,CCR,,Concord/Buchanan Fld,CA,US,37.98,-122.05,11,7
KAJO,AJO,,Corona,CA,US,33.898,-117.602,163,8
KCEC,CEC,,Crescent City,CA,US,41.79,-124.24,17,6
KDAG,DAG,,Daggett,CA,US,34.88,-116.78,587,6
KEDW,EDW,72381,Edwards AFB,CA,US,34.91,-117.87,702,3
KBLU,BLU,,Blue Canyon,CA,US,39.29,-120.7,1609,7
KFAT,FAT,72389,Fresno Air Termi,CA,US,36.78,-119.72,104,2
KIPL,IPL,,Imperial,CA,US,32.84,-115.57,-17,6
KWJF,WJF,,Lancaster,CA,US,34.73,-118.22,715,6
KLGB,LGB,72297,Long Beach,CA,US,33.83,-118.15,10,6
KLAX,LAX,72295,Los Angeles Intl,CA,US,33.94,-118.4,46,0
KMHR,MHR,,Sacramento Mather,CA,US,38.5553,-121.297,29,7
KMCE,MCE,,Merced Muni/Macready Field,CA,US,37.29,-120.52,47,6
KNKX,NKX,72293,Miramar NAS,CA,US,32.88,-117.15,146,5
KMHV,MHV,,Mojave,CA,US,35.059,-118.151,849,7
KMRY,MRY,,Monterey Peninsula,CA,US,36.59,-121.84,66,2
KMHS,MHS,72595,Mount Shasta,CA,US,41.33,-122.32,1078,7
KEED,EED,72380,Needles,CA,US,34.78,-114.62,302,6
KOAK,OAK,72493,Oakland/Metro Oakland Intl,CA,US,37.7,-122.22,26,1
KONT,ONT,,Ontario Intl,CA,US,34.06,-117.6,274,1
KPSP,PSP,,Palm Springs,CA,US,33.84,-116.5,135,3
KPMD,PMD,72382,Palmdale Productn Flgt Plant 42,CA,US,34.63,-118.08,780,6
KGXA,GXA,,Palmdale,CA,US,34.5666666667,-117.666666667,923,8
KPRB,PRB,,Paso Robles,CA,US,35.68,-120.63,245,6
KNTD,NTD,72391,Pt Mugu Naws,CA,US,34.12,-119.12,4,6
KRBL,RBL,72591,Red Bluff Muni,CA,US,40.15,-122.25,104,6
KRDD,RDD,72592,Redding Muni,CA,US,40.51,-122.3,155,3
KSAC,SAC,,Sacramento/Executive,CA,US,38.52,-121.5,11,2
KSMF,SMF,,Sacramento Intl,CA,US,38.7,-121.6,6,6
KSNS,SNS,,Salinas Muni,CA,US,36.66,-121.61,30,6
KSAN,SAN,72290,San Diego/Lindbe,CA,US,32.73,-117.17,12,2
KSDM,SDM,,Sann Diego/Brown Field,CA,US,32.58,-116.98,159,7
KSFO,SFO,72494,San Francisco Intl,CA,US,37.62,-122.36,3,0
KSJC,SJC,74505,San Jose Intl,CA,US,37.37,-121.93,24,6
KSBP,SBP,,San Luis Obispo/Mcchesney Field,CA,US,35.24,-120.64,59,6
KNSI,NSI,72291,San Nicolas Is.,CA,US,33.26,-119.45,154,7
KSNA,SNA,,Santa Ana/John Wayne-Orange Co,CA,US,33.68,-117.87,16,6
KSBA,SBA,,Santa Barbara,CA,US,34.44,-119.83,3,6
KSMX,SMX,72394,Santa Maria Publ,CA,US,34.91,-120.45,74,6
KSTS,STS,,Santa Rosa/Sonoma Co,CA,US,38.51,-122.81,39,6
KTVL,TVL,,South Lake Tahoe,CA,US,38.91,-120.0,1924,6
KSCK,SCK,72492,Stockton Metro,CA,US,37.91,-121.25,10,6
KSVE,SVE,72584,Susanville,CA,US,40.39,-120.57,1263,7
KTRM,TRM,,Thermal,CA,US,33.64,-116.17,-35,6
KTRK,TRK,,Truckee-Tahoe,CA,US,39.32,-120.14,1798,6
KUKI,UKI,,Ukiah,CA,US,39.14,-123.2,187,6
KVNY,VNY,,Van Nuys,CA,US,34.21,-118.49,245,6
KVBG,VBG,72393,Vandenberg AFB,CA,US,34.75,-120.57,112,3
KDEN,DEN,72565,Denver Intl,CO,US,39.8466,-104.656,1640,0
KAKO,AKO,,Akron/Washington,CO,US,40.1743,-103.215,1421,4
KALS,ALS,72462,Alamosa Muni,CO,US,37.46,-105.87,2299,6
KASE,ASE,,Aspen-Pitkin Co/Sardy Field,CO,US,39.22,-106.87,2354,4
KBJC,BJC,,Broomfield,CO,US,39.909,-105.117,1724,1
KCOS,COS,72466,Colorado Springs,CO,US,38.83,-104.72,1856,3
KAPA,APA,,Denver/Centennial,CO,US,39.5599,-104.848,1775,4
KDRO,DRO,,Dur-La Plata,CO,US,37.16,-107.75,2035,4
KEGE,EGE,,Eagle,CO,US,39.66,-106.92,1993,6
KFCS,FCS,72468,Fort Carson/Butt,CO,US,38.69,-104.77,1789,6
KGJT,GJT,72476,Grand Junction,CO,US,39.12,-108.53,1475,2
KGUC,GUC,,Gunnison,CO,US,38.55,-106.92,2339,6
KHDN,HDN,72571,Hayden,CO,US,40.51,-107.25,2012,6
KLHX,LHX,,La Junta,CO,US,38.05,-103.52,1277,7
KLAA,LAA,72463,Lamar,CO,US,38.07,-102.68,1119,4
KLIC,LIC,,Limon,CO,US,39.2734,-103.667,1630,4
KMTJ,MTJ,,Montrose,CO,US,38.51,-107.88,1750,6
KPUB,PUB,72464,Pueblo Memorial,CO,US,38.29,-104.52,1420,3
KBDR,BDR,72504,Bridgeport/Sikor,CT,US,41.18,-73.13,7,3
KGON,GON,,Groton-New London,CT,US,41.33,-72.05,3,7
KHFD,HFD,,Hartfrd/Brainard,CT,US,41.73,-72.65,4,4
KHVN,HVN,,New Haven/Tweed,CT,US,41.28,-72.88,4,7
KIJD,IJD,,Willimantic,CT,US,41.75,-72.18,75,7
KBDL,BDL,72508,Hartford/Bradley,CT,US,41.94,-72.68,60,6
KDOV,DOV,,Dover AFB,DE,US,39.14,-75.47,9,6
KILG,ILG,,Wilmington,DE,US,39.68,-75.6,28,4
KXMR,XMR,74794,Cocoa Bch,FL,US,28.468,-80.567,3,8
KCTY,CTY,72212,Cross City,FL,US,29.62,-83.1,13,6
KDAB,DAB,,Daytona Beach,FL,US,29.18,-81.05,9,3
KVPS,VPS,72221,Eglin AFB/Valpar,FL,US,30.48,-86.53,26,6
KFLL,FLL,,Fort Lauderdale/Hollywood Intl,FL,US,26.07,-80.15,3,6
KFXE,FXE,,Fort Lauderdale Executive,FL,US,26.2,-80.17,6,7
KRSW,RSW,,Ft Myers/Sw Florida Intl,FL,US,26.54,-81.76,10,6
KFMY,FMY,,Fort Myers/Page Field,FL,US,26.58,-81.87,4,6
KFPR,FPR,,Fort Pierce/St Lucie Co Intl,FL,US,27.5,-80.37,13,7
KGNV,GNV,,Gainesville Regnl,FL,US,29.68,-82.27,45,4
KIMM,IMM,,Immokalee,FL,US,26.4333333333,-81.4,12,8
KJAX,JAX,72206,Jacksonville Intl,FL,US,30.4941,-81.6879,10,0
KVQQ,VQQ,,Jacksonville/Cecil Fld NAS,FL,US,30.219,-81.877,25,7
KISM,ISM,,Orlando/Kissimmee Muni,FL,US,28.29,-81.437,25,7
KLEE,LEE,,Leesburg Muni,FL,US,28.82,-81.81,23,7
KMLB,MLB,72204,Melbourne,FL,US,28.11,-80.63,11,4
KTMB,TMB,,Miami/Kendall-Tamiami Executive,FL,US,25.65,-80.43,2,7
KMIA,MIA,,Miami Intl,FL,US,25.82,-80.28,3,0
KOPF,OPF,,Miami/Opa Locka,FL,US,25.91,-80.28,16,1
KMCO,MCO,72205,Orlando Jetport,FL,US,28.43,-81.32,29,2
KPNS,PNS,72222,Pensacola,FL,US,30.47,-87.2,38,6
KSRQ,SRQ,,Sarasota/Bradenton Intl,FL,US,27.4,-82.55,18,6
KPIE,PIE,,St Petersburg/Clearwater Intl,FL,US,27.91,-82.69,4,6
KTLH,TLH,72214,Tallahassee Rgnl,FL,US,30.4,-84.35,19,3
KTPA,TPA,72211,Tampa Intl Airport,FL,US,27.97,-82.53,11,3
KVRB,VRB,,Vero Beach,FL,US,27.65,-80.42,10,4
KPBI,PBI,72203,West Palm Beach,FL,US,26.68,-80.12,6,3
KABY,ABY,72216,Albany Muni,GA,US,31.54,-84.18,58,6
KAHN,AHN,72311,Athens Muni,GA,US,33.96,-83.32,244,4
KATL,ATL,72219,Atlanta Intl,GA,US,33.66,-84.42,296,0
KFTY,FTY,,Atlanta/Fulton Co-Brown Field,GA,US,33.78,-84.52,263,3
KAGS,AGS,72218,Augusta/Bush Field,GA,US,33.38,-81.97,44,4
KSSI,SSI,,Brunswick,GA,US,31.15,-81.38,6,6
KBQK,BQK,,Brunswick Glynco,GA,US,31.15,-81.47,8,7
KCSG,CSG,,Columbus,GA,US,32.53,-84.93,135,6
KLSF,LSF,72225,Fort Benning,GA,US,32.34,-85.0,71,6
KGVL,GVL,,Gainsvil/Gilmer,GA,US,34.26,-83.83,386,7
KMCN,MCN,72217,Macon/Lewis Wils,GA,US,32.71,-83.65,109,3
KVAD,VAD,74781,Vldosta/Mody AFB,GA,US,30.97,-83.2,71,6
KPDK,PDK,,Atlanta/Dekalb-Peachtree,GA,US,33.88,-84.3,302,7
KFFC,FFC,72215,Peachtree/Falcon Field,GA,US,33.35,-84.56,262,1
KSAV,SAV,72207,Savannah Muni,GA,US,32.14,-81.2,14,4
KVLD,VLD,,Valdosta,GA,US,30.79,-83.28,62,6
KWRB,WRB,,Robins AFB,GA,US,32.64,-83.6,90,6
KAYS,AYS,72213,Waycross/Ware Co,GA,US,31.25,-82.4,46,7
KBRL,BRL,,Burlington,IA,US,40.79,-91.12,211,6
KCID,CID,72545,Cedar Rapids Muni,IA,US,41.89,-91.7,264,4
KCSQ,CSQ,,Creston,IA,US,41.02,-94.37,394,8
KDVN,DVN,74455,Davenport,IA,US,41.62,-90.58,230,3
KDSM,DSM,72546,Des Moines Intl,IA,US,41.54,-93.65,295,2
KDBQ,DBQ,72547,Dubuque Muni,IA,US,42.41,-90.7,326,4
KFOD,FOD,72549,Fort Dodge,IA,US,42.55,-94.18,355,6
KHNR,HNR,,Harlan Muni,IA,US,41.584,-95.34,375,8
KMCW,MCW,,Mason City,IA,US,43.16,-93.33,369,6
KOTM,OTM,,Ottumwa Indstrl,IA,US,41.11,-92.45,256,6
KSUX,SUX,72557,Sioux City Muni,IA,US,42.41,-96.38,338,3
KSLB,SLB,,Storm Lake,IA,US,42.6,-95.23,454,8
KALO,ALO,72548,Waterloo Muni,IA,US,42.55,-92.4,264,4
KBOI,BOI,72681,Boise,ID,US,43.58,-116.22,875,0
KBYI,BYI,,Burley,ID,US,42.54,-113.77,1264,6
KCOE,COE,,Coeur D Alene,ID,US,47.78,-116.82,707,4
KSUN,SUN,,Hailey,ID,US,43.504,-114.296,1620,6
KIDA,IDA,,Idaho Falls/Fang,ID,US,43.53,-112.07,1453,6
KLWS,LWS,72783,Lewiston,ID,US,46.39,-117.02,438,6
KMLD,MLD,,Malad City,ID,US,42.18,-112.32,1373,6
KMYL,MYL,,Mccall,ID,US,44.89,-116.1,1533,6
KPIH,PIH,72578,Pocatello Muni,ID,US,42.93,-112.6,1359,3
KSMN,SMN,72686,Salmon,ID,US,45.12,-113.88,1233,6
KTWF,TWF,,Twin Falls,ID,US,42.48,-114.48,1266,6
KBMI,BMI,,Bloomington/Normal,IL,US,40.48,-88.93,267,7
KCMI,CMI,,Champaign/Urbana,IL,US,40.04,-88.28,228,6
KMDW,MDW,72534,Chicago/Midway,IL,US,41.79,-87.75,188,1
KORD,ORD,72530,Chicago/O'Hare A,IL,US,41.98,-87.9,200,0
KDPA,DPA,,Chicago/Dupage,IL,US,41.93,-88.25,231,6
KCGX,CGX,,Chicago/Meigs,IL,US,41.88,-87.62,181,7
KDEC,DEC,,Decatur,IL,US,39.84,-88.87,207,4
K3LF,3LF,,Litchfield,IL,US,39.163,-89.675,210,8
KMLI,MLI,72544,Moline/Quad City,IL,US,41.46,-90.52,184,6
KC09,C09,,Morris,IL,US,41.43,-88.42,178,7
KPIA,PIA,72532,Peoria Rgnl,IL,US,40.66,-89.68,205,4
KPNT,PNT,,Pontiac,IL,US,40.92,-88.63,201,7
KUIN,UIN,,Quincy/Balwin,IL,US,39.94,-91.2,234,6
KRFD,RFD,72543,Rockford,IL,US,42.21,-89.1,221,4
KSLO,SLO,,Salem-Leckrone,IL,US,38.65,-88.97,175,7
KSPI,SPI,72439,Springfield/Capi,IL,US,39.86,-89.67,181,6
KEVV,EVV,72432,Evansville/Dress,IN,US,38.05,-87.53,117,4
KFWA,FWA,72533,Fort Wayne/Baer,IN,US,41.01,-85.2,248,3
KGYY,GYY,,Gary,IN,US,41.62,-87.42,180,4
KIND,IND,72438,Indianapolis Intl,IN,US,39.73,-86.27,241,2
KLAF,LAF,,Lafayette/Purdue,IN,US,40.43,-86.93,182,4
KMIE,MIE,,Muncie/Delaware Co-Johnson Field,IN,US,40.242,-85.396,285,7
KSBN,SBN,72535,South Bend/St. J,IN,US,41.71,-86.32,237,4
KHUF,HUF,72437,Hulman Field/Terre Haute,IN,US,39.46,-87.3,179,6
KCNU,CNU,,Chanute/Martin Johnson,KS,US,37.68,-95.48,297,6
KCNK,CNK,72458,Concordia,KS,US,39.55,-97.65,447,7
KDDC,DDC,72451,Dodge City,KS,US,37.78,-99.97,789,0
KEMP,EMP,,Emporia,KS,US,38.34,-96.2,367,7
KFRI,FRI,72455,Junction City,KS,US,39.055,-96.765,325,6
KGCK,GCK,,Garden City,KS,US,37.94,-100.72,877,4
KGLD,GLD,72465,Goodland/Renner,KS,US,39.38,-101.7,1113,3
KHYS,HYS,,Hays,KS,US,38.86,-99.27,609,4
KHUT,HUT,,Hutchinson,KS,US,38.08,-97.87,467,6
KJHN,JHN,,Johnson City,KS,US,37.5833333333,-101.733333333,1013,8
KMHK,MHK,,Manhattan,KS,US,39.16,-96.67,317,4
KRSL,RSL,,Russell Muni,KS,US,38.87,-98.81,567,6
KSLN,SLN,,Salina,KS,US,38.8,-97.65,385,6
KFOE,FOE,,Topeka/Forbes,KS,US,38.96,-95.67,320,6
KTOP,TOP,72456,Topeka/Billard Muni,KS,US,39.08,-95.62,268,3
KICT,ICT,72450,Wichita/Dwight D. Eisenhower,KS,US,37.66,-97.43,407,3
KBWG,BWG,,Bowling Green,KY,US,36.96,-86.42,168,4
KCVG,CVG,72421,Cincinnati/Grtr,OH,US,39.05,-84.67,269,0
KLEX,LEX,72422,Lexington/Bluegr,KY,US,38.05,-84.6,300,4
KLOZ,LOZ,72329,London,KY,US,37.09,-84.04,362,6
KSDF,SDF,72423,Louisville/Standiford,KY,US,38.19,-85.73,146,6
KJKL,JKL,,Jackson,KY,US,37.58,-83.32,416,5
KPAH,PAH,72435,Paducah/Barkley,KY,US,37.07,-88.77,119,3
KESF,ESF,,Alexandria/Esler,LA,US,31.4,-92.3,28,6
KBTR,BTR,,Baton Rouge/Ryan,LA,US,30.54,-91.15,21,4
KPOE,POE,72239,Fort Polk (Army),LA,US,31.05,-93.18,101,4
KLFT,LFT,,Lafayette Regnl,LA,US,30.2,-91.99,11,6
KLCH,LCH,72240,Lake Charles Muni,LA,US,30.12,-93.22,4,3
KMLU,MLU,,Monroe Regnl,LA,US,32.51,-92.04,29,6
KARA,ARA,,New Iberia/Acadiana Regnl,LA,US,30.03,-91.88,18,7
KNEW,NEW,,New Orleans/Lakefront,LA,US,30.04,-90.03,3,1
KMSY,MSY,72231,New Orleans Intl,LA,US,29.98,-90.25,5,0
KSHV,SHV,72248,Shreveport Rgnl,LA,US,32.45,-93.83,83,3
KTVR,TVR,,La/Vicksburg,MS,US,32.35,-91.03,26,7
KBED,BED,74490,Bedford/Laurence G Hanscom,MA,US,42.47,-71.29,50,2
KBVY,BVY,,Beverly Muni,MA,US,42.58,-70.92,28,7
KBOS,BOS,72509,Boston/Logan Intl,MA,US,42.38,-71.03,6,0
KCEF,CEF,74491,Chicopee/Westove,MA,US,42.21,-72.53,75,7
KFMH,FMH,,Falmouth,MA,US,41.659,-70.522,40,7
KHYA,HYA,,Hyannis,MA,US,41.68,-70.28,22,6
KLWM,LWM,,Lawrence,MA,US,42.73,-71.12,54,7
KEWB,EWB,,New Bedford,MA,US,41.69,-70.97,23,7
KORE,ORE,,Orange,MA,US,42.58,-72.28,164,7
KPSF,PSF,,Pittsfield Muni,MA,US,42.43,-73.29,355,7
KPYM,PYM,,Plymouth,MA,US,41.91,-70.73,43,7
KBAF,BAF,,Westfield/Barnes Muni,MA,US,42.16,-72.72,83,6
KORH,ORH,,Worcester,MA,US,42.28,-71.87,304,6
KBWI,BWI,72406,Baltimore/Wash I,MD,US,39.19,-76.67,59,3
KMTN,MTN,,Martin/Mddle Rvr,MD,US,39.34,-76.42,7,6
KCBE,CBE,,Greater Cumberland Rgnl,MD,US,39.615,-78.761,236,7
K2G4,2G4,,Oakland,MD,US,39.58,-79.339,894,8
KHGR,HGR,,Hagerstown/Washington Co Regnl,MD,US,39.71,-77.73,224,7
KNHK,NHK,72404,Patuxent River N,MD,US,38.29,-76.4,12,6
KSBY,SBY,,Salisbury,MD,US,38.34,-75.5,19,4
KLEW,LEW,,Auburn-Lewiston,ME,US,44.05,-70.29,88,7
KAUG,AUG,,Augusta State,ME,US,44.32,-69.8,109,4
KBGR,BGR,72607,Bangor Intl,ME,US,44.81,-68.83,57,3
KBHB,BHB,,Bar Harbor,ME,US,44.46,-68.37,26,7
KCAR,CAR,72712,Caribou,ME,US,46.88,-68.02,191,0
K40B,40B,,Clayton Lake,ME,US,46.62,-69.52,314,8
KFVE,FVE,,Frenchville,ME,US,47.29,-68.32,301,7
KGNR,GNR,72619,Greenville Muni,ME,US,45.462,-69.595,427,7
KHUL,HUL,,Houlton,ME,US,46.14,-67.78,150,2
KMLT,MLT,,Millinocket,ME,US,45.66,-68.68,123,6
KPWM,PWM,72606,Portland Intl Je,ME,US,43.66,-70.32,15,3
KPQI,PQI,72713,Presque Isle,ME,US,46.69,-68.05,146,6
KRKD,RKD,,Rockland/Knox,ME,US,44.08,-69.12,17,7
KSFM,SFM,,Sanford,ME,US,43.4,-70.7,74,7
KAPN,APN,72639,Alpena/Phelps,MI,US,45.08,-83.57,210,4
KBAX,BAX,,Bad Axe,MI,US,43.79,-82.99,234,7
KBTL,BTL,,Battle Creek/W K Kellogg,MI,US,42.3,-85.25,290,6
KRQB,RQB,,Big Rapids/Roben-Hood,MI,US,43.72,-85.5,302,7
KCAD,CAD,,Cadillac/Wexford,MI,US,44.29,-85.42,398,7
KFPK,FPK,,Charlotte/Fitch H Beach Muni,MI,US,42.57,-84.81,272,7
KCIU,CIU,,Chippewa,MI,US,46.26,-84.47,244,7
KP59,P59,,Copper Harbor,MI,US,47.45,-87.9,190,7
KDET,DET,,Detroit City,MI,US,42.43,-83.02,190,3
KDTW,DTW,72537,Detroit Metro,MI,US,42.23,-83.33,195,1
KESC,ESC,72648,Escanaba,MI,US,45.73,-87.08,187,7
KFNT,FNT,72637,Flint/Bishop Intl,MI,US,42.98,-83.73,233,4
KGRR,GRR,72635,Grand Rapids Intl,MI,US,42.89,-85.52,237,3
KSAW,SAW,,K I Sawyer AFB,MI,US,46.36,-87.4,372,8
KCMX,CMX,72744,Houghton/Hancock,MI,US,47.18,-88.5,326,6
KC04,C04,,Hart/Shelby,MI,US,41.9166666667,-85.0333333333,279,7
KBIV,BIV,,Holland/Tulip City,MI,US,42.75,-86.1,208,7
KIMT,IMT,,Iron Mountain-Kingsford/Ford,MI,US,45.81,-88.11,349,7
KIWD,IWD,,Ironwood,MI,US,46.54,-90.13,375,7
KJXN,JXN,,Jackson/Reynolds,MI,US,42.27,-84.47,305,6
KAZO,AZO,,Kalamazoo Intl A,MI,US,42.24,-85.55,272,6
KLAN,LAN,72539,Lansing/Capital,MI,US,42.78,-84.6,264,4
KLDM,LDM,,Ludington/Mason Co,MI,US,43.96,-86.41,197,7
KMBL,MBL,,Manistee/Blacker,MI,US,44.28,-86.25,189,7
KISQ,ISQ,,Manistique/Schoolcraft Co,MI,US,45.97,-86.17,209,7
KMNM,MNM,,Menominee,MI,US,45.12,-87.63,191,7
KMOP,MOP,,Mount Pleasant Muni,MI,US,43.62,-84.74,230,7
KP53,P53,,Munising,MI,US,46.412,-86.651,187,7
KMKG,MKG,72636,Muskegon County,MI,US,43.18,-86.27,191,4
KERY,ERY,,Newberry,MI,US,46.31,-85.46,265,7
KOSC,OSC,,Wurtsmith AFB,MI,US,44.46,-83.4,193,7
KPLN,PLN,,Pellston/Emmet,MI,US,45.58,-84.8,217,6
KPTK,PTK,,Pontiac/Oakland Co Intl,MI,US,42.67,-83.42,299,2
KPHN,PHN,,St. Clair County,MI,US,42.92,-82.53,198,7
KMBS,MBS,,Saginaw/Tri City,MI,US,43.53,-84.08,202,6
KANJ,ANJ,72734,Sault Ste Marie/Sanderson Field,MI,US,46.485,-84.366,218,0
KLWA,LWA,,South Havenea Rgnl,MI,US,42.351,-86.256,203,8
KTVC,TVC,,Traverse City/Cherry Capital,MI,US,44.73,-85.58,190,6
KAXN,AXN,,Alexandria/Chand,MN,US,45.87,-95.41,433,3
KAQP,AQP,,Appleton Muni,MN,US,45.23,-96.0,311,7
KBDE,BDE,,Baudette,MN,US,48.73,-94.6,329,7
KBJI,BJI,72755,Bemidji Muni,MN,US,47.51,-94.93,420,6
KBRD,BRD,,Brainerd/Crow Wg,MN,US,46.4,-94.13,372,4
KDLH,DLH,72745,Duluth Intl,MN,US,46.84,-92.18,435,2
KELO,ELO,,Ely,MN,US,47.91,-91.82,443,7
KFRM,FRM,,Fairmont,MN,US,43.66,-94.42,354,6
KHIB,HIB,,Hibbing,MN,US,47.39,-92.85,412,3
KINL,INL,72747,International Falls,MN,US,48.58,-93.38,360,1
KMSP,MSP,72658,Minneapolis-St Paul Intl,MN,US,44.89,-93.22,265,0
KJMR,JMR,,Mora Muni,MN,US,45.89,-93.27,309,7
KRWF,RWF,,Redwood Falls,MN,US,44.55,-95.08,311,6
KRST,RST,72644,Rochester,MN,US,43.904,-92.492,403,6
KSTC,STC,72655,St Cloud/Whitney,MN,US,45.55,-94.07,314,3
KCGI,CGI,,Cape Girardeau,MO,US,37.23,-89.58,102,6
KCOU,COU,72445,Columbia Rgnl,MO,US,38.83,-92.22,271,4
KFAM,FAM,,Farmington Regnl,MO,US,37.76,-90.43,288,6
KJLN,JLN,,Joplin,MO,US,37.152,-94.495,299,6
KMCI,MCI,72446,Kansas City Intl,MO,US,39.33,-94.72,320,0
KMKC,MKC,,Kansas City Downtown,MO,US,39.12,-94.6,227,1
KMBY,MBY,,Moberly,MO,US,39.464,-92.427,264,8
KSGF,SGF,72440,Springfield Muni,MO,US,37.23,-93.4,390,5
KSTJ,STJ,72449,St. Joseph Rosecrans,MO,US,39.77,-94.91,247,4
KSUS,SUS,,St Louis/Spirit,MO,US,38.66,-90.63,141,3
KSTL,STL,72434,St. Louis Lambert,MO,US,38.76,-90.37,171,0
KVIH,VIH,,Vichy/Rolla,MO,US,38.14,-91.77,333,7
KGLH,GLH,,Greenville,MS,US,33.48,-90.98,45,6
KGWO,GWO,,Greenwood,MS,US,33.51,-90.08,44,4
KGPT,GPT,,Gulfport-Biloxi Regnl,MS,US,30.4,-89.07,14,6
KHBG,HBG,,Hattiesburg/Bobby L Chain Muni,MS,US,31.265,-89.253,44,7
KJAN,JAN,72235,Jackson/Thompson,MS,US,32.33,-90.08,91,3
KMCB,MCB,,Mccomb,MS,US,31.18,-90.47,124,6
KMEI,MEI,72234,Meridian/Key Fei,MS,US,32.34,-88.75,89,6
KPIB,PIB,,Pine Belt Rgnl,MS,US,31.47,-89.33,91,6
KTUP,TUP,72332,Tupelo/C.D. Lemo,MS,US,34.28,-88.77,105,4
KBIL,BIL,72677,Billings/Logan I,MT,US,45.8,-108.53,1091,6
KBZN,BZN,,Bozeman/Gallatin,MT,US,45.79,-111.15,1361,4
KBTM,BTM,,Butte/Silver Bow,MT,US,45.96,-112.5,1688,6
KCTB,CTB,,Cut Bank,MT,US,48.61,-112.37,1175,4
KGGW,GGW,72768,Glasgow Intl,MT,US,48.21,-106.63,694,2
KGDV,GDV,,Glendive,MT,US,47.14,-104.8,749,6
KGTF,GTF,72775,Great Falls,MT,US,47.48,-111.35,1119,0
KHVR,HVR,72777,Havre,MT,US,48.55,-109.77,787,3
KHLN,HLN,72772,Helena Rgnl,MT,US,46.61,-112.0,1182,4
KJDN,JDN,,Jordan,MT,US,47.33,-106.93,801,7
KGPI,GPI,,Kalispell,MT,US,48.3,-114.27,908,6
KLWT,LWT,,Lewiston,MT,US,47.05,-109.45,1270,6
KLVM,LVM,,Livingston/Missn,MT,US,45.71,-110.43,1418,6
KMLS,MLS,74230,Miles City,MT,US,46.44,-105.87,801,4
KMSO,MSO,72773,Missoula/Johnson,MT,US,46.93,-114.08,975,3
KPWD,PWD,,Plentywood,MT,US,48.7833333333,-104.516666667,686,8
KSDY,SDY,,Sidney/Richland,MT,US,47.73,-104.18,605,6
KWYS,WYS,,W Yellowstone,MT,US,44.6884,-111.118,2025,8
KAVL,AVL,72315,Asheville Rgnl,NC,US,35.44,-82.55,670,4
KTNB,TNB,,Boone,NC,US,36.199,-81.651,911,7
KHAT,HAT,72302,Cape Hatteras,NC,US,35.28,-75.55,3,8
KCLT,CLT,72314,Charlotte/Douglas Intl,NC,US,35.21,-80.94,220,4
KECG,ECG,,Elizabeth City Cg Air Stn/Muni,NC,US,36.26,-76.18,11,6
KFAY,FAY,,Fayetteville Regnl/Grannis Field,NC,US,34.99,-78.88,55,4
KGSB,GSB,,Seymour-Johnson,NC,US,35.34,-77.97,33,6
KGSO,GSO,72317,Greensboro/Hi Pt,NC,US,36.01,-79.95,275,3
KHKY,HKY,,Hickory,NC,US,35.76,-81.38,354,6
KOAJ,OAJ,,Jacksonville/Ellis,NC,US,34.83,-77.62,29,7
KISO,ISO,,Kinston,NC,US,35.331,-77.609,29,7
KLBT,LBT,,Lumberton Muni,NC,US,34.61,-79.06,37,7
KEWN,EWN,,New Bern,NC,US,35.09,-77.05,3,6
KPGV,PGV,,Pitt-Greenville,NC,US,35.63,-77.4,8,7
KPOB,POB,72303,Pope AFB,NC,US,35.18,-79.02,66,6
KRDU,RDU,72306,Raleigh-Durham,NC,US,35.88,-78.78,130,2
KIXA,IXA,,Roanoke Rapids,NC,US,36.33,-77.635,44,8
KRCZ,RCZ,,Rockingham,NC,US,34.891,-79.759,109,7
KRWI,RWI,,Rocky Mt.Wilson,NC,US,35.86,-77.88,47,6
KILM,ILM,,Wilmington,NC,US,34.28,-77.92,9,0
KINT,INT,72319,Winston Salem/Smith Reynolds,NC,US,36.13,-80.22,291,4
KBIS,BIS,72764,Bismarck Muni,ND,US,46.78,-100.75,505,0
KP11,P11,72758,Devils Lake,ND,US,48.11,-98.87,443,7
KDIK,DIK,,Dickinson,ND,US,46.79,-102.8,788,6
KFAR,FAR,72753,Fargo/Hector Field,ND,US,46.91,-96.8,277,1
KGFK,GFK,,Grand Forks Intl,ND,US,47.96,-97.18,258,2
KJMS,JMS,,Jamestown,ND,US,46.93,-98.68,455,6
KMIB,MIB,,Minot AFB,ND,US,48.43,-101.35,508,6
KMOT,MOT,,Minot Intl,ND,US,48.28,-101.28,519,6
KISN,ISN,72767,Williston/Slouli,ND,US,48.16,-103.6,579,6
KAIA,AIA,,Alliance Muni,NE,US,42.05,-102.8,1196,7
KCDR,CDR,,Chadron,NE,US,42.84,-103.08,1010,6
KFNB,FNB,,Falls City/Brnnr,NE,US,40.08,-95.58,300,7
KGRI,GRI,72552,Grand Island,NE,US,40.98,-98.32,561,6
KHSI,HSI,,Hastings,NE,US,40.61,-98.43,591,7
KLNK,LNK,72551,Lincoln Muni,NE,US,40.86,-96.75,364,3
KOFK,OFK,72556,Norfolk/Stefan F,NE,US,41.98,-97.43,470,6
KLBF,LBF,72562,North Platte/Lee Bi,NE,US,41.14,-100.68,847,3
KOMA,OMA,72550,Omaha/Eppley Field,NE,US,41.3,-95.9,312,2
KODX,ODX,,Ord/Sharp,NE,US,41.62,-98.95,631,7
KBFF,BFF,72566,Scottsbluff/Heil,NE,US,41.88,-103.6,1203,6
KSNY,SNY,72561,Sidney Muni,NE,US,41.11,-102.98,1307,6
KBML,BML,72616,Berlin Muni,NH,US,44.59,-71.18,345,7
KCON,CON,72605,Concord Muni,NH,US,43.21,-71.5,103,6
KLEB,LEB,72611,Lebanon Muni,NH,US,43.63,-72.3,171,6
KMHT,MHT,,Manchester,NH,US,42.94,-71.43,81,6
KPSM,PSM,,Pease/Portsmouth,NH,US,43.09,-70.82,31,6
KHIE,HIE,,Whitefield,NH,US,44.36,-71.53,318,7
KACY,ACY,72407,Atlantic City In,NJ,US,39.46,-74.57,23,4
KMIV,MIV,,Millville Muni,NJ,US,39.37,-75.07,23,6
KMMU,MMU,,Morristown Muni,NJ,US,40.799,-74.415,57,7
KEWR,EWR,72502,Newark Intl,NJ,US,40.71,-74.17,7,2
KTEB,TEB,,Teterboro,NJ,US,40.86,-74.05,7,6
KTTN,TTN,,Trenton/Mercer,NJ,US,40.28,-74.81,59,7
KGUP,GUP,,Gallup/Clarke,NM,US,35.53,-108.78,1971,6
KABQ,ABQ,72365,Albuquerque/Kirtland,NM,US,35.05,-106.62,1618,0
KCVS,CVS,,Clovis/Cannon,NM,US,34.39,-103.32,1309,4
KCNM,CNM,,Carlsbad,NM,US,32.34,-104.27,985,6
KDMN,DMN,,Deming,NM,US,32.26,-107.7,1311,6
KFMN,FMN,,Farmington/Four Corners Regnl,NM,US,36.76,-108.23,1685,6
KHOB,HOB,,Hobbs,NM,US,32.69,-103.2,1115,6
KHMN,HMN,74732,Holloman AFB,NM,US,32.86,-106.1,1248,4
KLRU,LRU,,Las Cruces,NM,US,32.289,-106.922,1358,7
KLVS,LVS,,Las Vegas,NM,US,35.66,-105.15,2091,3
KROW,ROW,72268,Roswell/Industrial Air Center,NM,US,33.31,-104.51,1112,4
KSAF,SAF,,Santa Fe,NM,US,35.62,-106.08,1930,1
KTCS,TCS,72271,Truth Or Consequences,NM,US,33.23,-107.27,1469,6
KTCC,TCC,,Tucumcari,NM,US,35.19,-103.6,1235,6
KDRA,DRA,72387,Mercury/Desert R,NV,US,36.62,-116.02,1006,5
KEKO,EKO,,Elko,NV,US,40.84,-115.78,1547,3
KELY,ELY,72486,Ely/Yelland Field,NV,US,39.29,-114.85,1906,3
KP68,P68,,Eureka,NV,US,39.604,-116.005,1809,9
KLAS,LAS,72386,Las Vegas/Mccarr,NV,US,36.09,-115.17,636,2
KLOL,LOL,72580,Lovelock/Darby,NV,US,40.08,-118.55,1189,6
KRNO,RNO,72488,Reno/Cannon Intl,NV,US,39.51,-119.78,1342,2
KTPH,TPH,72485,Tonopah,NV,US,38.08,-117.08,1652,0
KAWH,AWH,,Wildhorse Res/El,NV,US,41.67,-115.79,1902,7
KWMC,WMC,72583,Winnemucca Muni,NV,US,40.91,-117.8,1310,3
KALB,ALB,72518,Albany County,NY,US,42.76,-73.8,92,3
KBGM,BGM,72515,Binghamton/Broom,NY,US,42.23,-75.98,490,3
KBUF,BUF,72528,Buffalo Intl,NY,US,42.94,-78.73,211,0
KELM,ELM,,Elmira/Corning Regnl,NY,US,42.18,-76.9,302,6
KGTB,GTB,74370,Fort Drum/Wheele,NY,US,44.05,-75.74,207,6
KGFL,GFL,,Glens Falls,NY,US,43.36,-73.62,103,6
KISP,ISP,,Islip/Macthur,NY,US,40.8,-73.1,43,4
KITH,ITH,,Ithaca,NY,US,42.48,-76.47,335,6
KJHW,JHW,,Jamestown,NY,US,42.16,-79.25,525,6
KMSS,MSS,,Massena/Richards,NY,US,44.94,-74.85,66,6
KMSV,MSV,,Monticello/Sllvn,NY,US,41.71,-74.8,428,7
KSWF,SWF,,Stewart/Newburgh,NY,US,41.51,-74.1,150,6
KIAG,IAG,,Niagara Falls,NY,US,43.11,-78.95,182,4
KJFK,JFK,74486,New York/Jf Kenn,NY,US,40.66,-73.78,9,1
KLGA,LGA,72503,New York/La Guardia,NY,US,40.78,-73.88,11,1
KOGS,OGS,,Ogdensburg,NY,US,44.69,-75.4,91,7
KPBG,PBG,,Plattsburgh Intl,NY,US,44.651,-73.468,72,8
KPOU,POU,,Poughkeepsie,NY,US,41.64,-73.88,46,4
KROC,ROC,72529,Rochester/Monroe,NY,US,43.12,-77.67,178,6
KRME,RME,,Rome,NY,US,43.234,-75.407,154,7
KSLK,SLK,,Saranac Lake/Adirondack Regnl,NY,US,44.39,-74.21,498,6
KSCH,SCH,,Schenectady,NY,US,42.86,-73.93,115,7
KSYR,SYR,72519,Syracuse/Hancock,NY,US,43.12,-76.12,127,3
KUCA,UCA,,Utica,NY,US,43.15,-75.3833333333,228,4
KART,ART,,Watertown Intl A,NY,US,44.01,-76.02,100,6
KHPN,HPN,,White Plains,NY,US,41.08,-73.72,121,6
KCAK,CAK,72521,Akron-Canton Rgnl,OH,US,40.93,-81.43,377,6
KUNI,UNI,,Athens/Albany,OH,US,39.212,-82.229,193,8
KLUK,LUK,,Cincinnati/Lunken,OH,US,39.1,-84.42,155,1
KCLE,CLE,72524,Cleveland/Hopkin,OH,US,41.43,-81.87,233,3
KCMH,CMH,72428,Port Columbus In,OH,US,40.01,-82.88,247,4
KDAY,DAY,72429,Dayton/James M C,OH,US,39.91,-84.2,305,4
KFDY,FDY,,Findlay,OH,US,41.03,-83.67,247,6
KMFD,MFD,,Mansfield/Lahm,OH,US,40.83,-82.52,395,6
KPHD,PHD,,New Philadelphia/Harry Clever,OH,US,40.47,-81.42,272,7
KLCK,LCK,,Rickenbacker AFB,OH,US,39.83,-82.93,227,7
KTOL,TOL,72536,Toledo Express,OH,US,41.61,-83.8,210,6
KILN,ILN,72426,Wilmington/Airborne Airpark,OH,US,39.43,-83.8,322,3
KYNG,YNG,72525,Youngstown Muni,OH,US,41.27,-80.67,360,6
KZZV,ZZV,,Zanesville,OH,US,39.96,-81.9,268,6
KADM,ADM,,Ardmore,OK,US,34.303,-97.02,232,4
KCSM,CSM,,Clinton/Clinton-Sherman,OK,US,35.36,-99.2,588,7
KEND,END,,Enid/Vance AFB,OK,US,36.34,-97.9,398,4
KFSI,FSI,72355,Fort Sill,OK,US,34.66,-98.4,362,7
KFDR,FDR,,Frederick Muni,OK,US,34.35,-98.98,386,5
KGAG,GAG,,Gage,OK,US,36.3,-99.77,668,6
KGUY,GUY,,Guymon Muni,OK,US,36.69,-101.51,948,7
KHBR,HBR,,Hobart,OK,US,35.01,-99.05,473,6
KMLC,MLC,,Mcalester,OK,US,34.89,-95.78,232,6
KOUN,OUN,72357,Norman/Max Westheimer,OK,US,35.246,-97.472,357,3
KOKC,OKC,72353,Oklahoma City/Will Rogers,OK,US,35.41,-97.6,390,2
KPNC,PNC,,Ponca City,OK,US,36.73,-97.1,308,6
KTUL,TUL,72356,Tulsa Intl,OK,US,36.21,-95.9,207,3
KJWG,JWG,,Watonga,OK,US,35.86,-98.42,472,7
KWWR,WWR,,West Woodward,OK,US,36.44,-99.52,667,7
KPDX,PDX,72698,Portland Intl,OR,US,45.61,-122.6,7,2
KHIO,HIO,,Hillsboro,OR,US,45.54,-122.95,68,6
KAST,AST,72791,Astoria/Clatsop,OR,US,46.16,-123.88,3,4
KBKE,BKE,,Baker,OR,US,44.84,-117.82,1024,6
KBNO,BNO,72683,Burns Muni,OR,US,43.58,-118.95,1264,6
KEUG,EUG,72693,Eugene/Mahlon Sw,OR,US,44.12,-123.22,114,1
KLMT,LMT,,Klamath Falls,OR,US,42.16,-121.73,1246,6
KMFR,MFR,72597,Medford/Jackson,OR,US,42.38,-122.87,396,0
KONP,ONP,72695,Newport Muni,OR,US,44.58,-124.05,48,6
KPDT,PDT,72688,Pendleton Muni,OR,US,45.69,-118.85,462,2
KRDM,RDM,,Redmond/Roberts,OR,US,44.28,-121.15,938,6
KREO,REO,,Rome,OR,US,42.58,-117.89,1235,6
KRBG,RBG,72690,Roseburg,OR,US,43.23,-123.37,154,7
KSLE,SLE,72694,Salem/Mcnary,OR,US,44.93,-123.02,59,2
KDLS,DLS,,The Dalles,OR,US,45.62,-121.15,71,3
KTTD,TTD,,Portland-Troutdale,OR,US,45.55,-122.4,14,6
KABE,ABE,72517,Allentown-Bethlehem,PA,US,40.66,-75.43,114,6
KAOO,AOO,,Altoona/Blair Co,PA,US,40.3,-78.32,455,6
KAVP,AVP,72513,Wilkes-Barre/Scranton,PA,US,41.33,-75.73,291,6
KBVI,BVI,,Beaver County,PA,US,40.76,-80.33,382,6
KBFD,BFD,,Bradford Rgnl,PA,US,41.8,-78.64,647,6
KDUJ,DUJ,,Dubois,PA,US,41.19,-78.9,554,6
KERI,ERI,72526,Erie Intl,PA,US,42.08,-80.18,222,4
KFKL,FKL,,Franklin,PA,US,41.39,-79.87,469,6
KIDI,IDI,,Indiana/Stewart,PA,US,40.63,-79.1,429,7
KJST,JST,,Johnstown,PA,US,40.33,-78.83,694,6
KLNS,LNS,,Lancaster,PA,US,40.12,-76.3,125,7
KLBE,LBE,,Latrobe,PA,US,40.29,-79.4,361,6
KMDT,MDT,,Middletwn/Olmstd,PA,US,40.21,-76.77,95,6
KPHL,PHL,72408,Philadelphia Intl,PA,US,39.89,-75.25,18,3
KPNE,PNE,,N Philadelphia,PA,US,40.09,-75.02,28,4
KAGC,AGC,,Pittsburgh/Allegheny Co,PA,US,40.35,-79.93,389,6
KPIT,PIT,72520,Pittsburgh Intl,PA,US,40.51,-80.22,357,2
KRDG,RDG,,Reading/Carl A Spaatz,PA,US,40.38,-75.97,109,6
KUNV,UNV,,State College,PA,US,40.86,-77.83,378,3
KAFJ,AFJ,,Washington,PA,US,40.14,-80.29,361,7
KIPT,IPT,72514,Williamsport,PA,US,41.26,-76.92,164,6
KBID,BID,,Block Island,RI,US,41.18,-71.58,33,7
KOQU,OQU,,N. Kingston/Quon,RI,US,41.61,-71.42,6,7
KPVD,PVD,72507,Providence/Green,RI,US,41.73,-71.43,16,3
KAND,AND,,Anderson Co,SC,US,34.49,-82.71,239,6
KCHS,CHS,72208,Charleston AFB,SC,US,32.91,-80.03,13,1
KCAE,CAE,72310,Columbia Metro,SC,US,33.96,-81.12,70,3
KFLO,FLO,,Florence Regnl,SC,US,34.19,-79.72,44,6
KGSP,GSP,72312,Greenville/Spart,SC,US,34.91,-82.22,287,3
KGMU,GMU,,Greenville Downtown,SC,US,34.85,-82.35,315,5
KHXD,HXD,,Hilton Head Is,SC,US,32.22,-80.7,6,7
KMYR,MYR,74791,Myrtle Beach AFB,SC,US,33.69,-78.93,8,6
KCRE,CRE,,North Myrtle Beach/Grand Strand,SC,US,33.81,-78.72,10,6
KOGB,OGB,,Orangeburg,SC,US,33.47,-80.85,59,7
KSSC,SSC,74790,Shaw AFB/Sumter,SC,US,33.98,-80.47,74,6
KABR,ABR,72659,Aberdeen Rgnl,SD,US,45.46,-98.43,397,3
K9V9,9V9,72653,Chamberlain,SD,US,43.8,-99.32,519,7
KD07,D07,,Faith Muni,SD,US,45.04,-102.02,784,7
KHON,HON,72654,Huron Rgnl,SD,US,44.39,-98.22,390,6
KY22,Y22,72669,Lemmon,SD,US,45.9166666667,-102.166666667,781,7
KMHE,MHE,,Mitchell Muni,SD,US,43.77,-98.04,397,7
KPHP,PHP,,Philip,SD,US,44.05,-101.6,672,7
KPIR,PIR,,Pierre,SD,US,44.39,-100.28,526,3
KRAP,RAP,,Rapid City,SD,US,44.056,-103.054,965,2
KFSD,FSD,72651,Sioux Falls/Foss,SD,US,43.59,-96.74,436,2
KATY,ATY,,Watertown Muni,SD,US,44.92,-97.16,532,6
KYKN,YKN,,Yankton,SD,US,42.92,-97.38,398,7
KBRA,BRA,,Brandt,SD,US,44.6833333333,-96.85,564,9
KTRI,TRI,,Tri-City/Bristol,TN,US,36.48,-82.4,474,4
KCHA,CHA,72324,Chattanooga/Love,TN,US,35.04,-85.2,210,4
KCSV,CSV,,Crossville,TN,US,35.96,-85.08,570,6
KMKL,MKL,,Mckellar/Jackson,TN,US,35.61,-88.92,128,6
KTYS,TYS,72326,Knoxville Muni,TN,US,35.81,-83.98,302,4
KMEM,MEM,72334,Memphis Intl,TN,US,35.04,-89.98,86,2
KMOR,MOR,,Morristown,TN,US,36.1833333333,-83.3666666667,400,8
KBNA,BNA,72327,NAShville Metro,TN,US,36.12,-86.68,210,2
KDFW,DFW,72259,Dallas/Ft Worth,TX,US,32.91,-97.03,174,0
KABI,ABI,72266,Abilene,TX,US,32.43,-99.68,548,4
KALI,ALI,,Alice Intl,TX,US,27.74,-98.04,53,6
KAMA,AMA,72363,Rick Husband Amarillo Intl,TX,US,35.23,-101.7,1093,3
KLBX,LBX,,Angleton-Lk Jackson/Brazoria Co,TX,US,29.12,-95.47,6,7
KAUS,AUS,72254,Austin/Bergstrom Intl,TX,US,30.183,-97.68,166,3
KBPT,BPT,72241,Beaumont/Port,TX,US,29.95,-94.02,5,6
KBBD,BBD,,Brady,TX,US,31.179,-99.324,557,8
KBRO,BRO,72250,Brownsville Intl,TX,US,25.9,-97.43,7,0
KCDS,CDS,,Childress Muni,TX,US,34.4275,-100.284,594,3
KCLL,CLL,,College Station,TX,US,30.58,-96.37,96,4
KCXO,CXO,,Conroe/Montgomery Co,TX,US,30.36,-95.41,75,8
KCRP,CRP,72251,Corpus Christi I,TX,US,27.77,-97.5,14,2
KDHT,DHT,,Dalhart,TX,US,36.03,-102.55,1217,6
KDAL,DAL,72258,Dallas/Love,TX,US,32.86,-96.85,158,1
KDRT,DRT,72261,Del Rio Intl,TX,US,29.38,-100.92,313,2
KDYS,DYS,69019,Dyess AFB/Ablene,TX,US,32.44,-99.85,545,6
KELP,ELP,72270,El Paso Intl,TX,US,31.8,-106.4,1197,2
KFTW,FTW,,Ft Worth/Meacham,TX,US,32.83,-97.35,214,2
KGLS,GLS,72242,Galveston,TX,US,29.27,-94.87,6,6
KUVA,UVA,,Uvalde,TX,US,29.211,-99.744,287,7
KGDP,GDP,72262,Guadalupe Mtns Np,TX,US,31.83,-104.8,1692,7
KHRL,HRL,,Harlingen,TX,US,26.23,-97.67,10,6
KHOU,HOU,,Houston/Wm P Hobby,TX,US,29.65,-95.28,36,3
KIAH,IAH,72243,Houston Bush Intl,TX,US,29.97,-95.35,36,2
KUTS,UTS,,Huntsville,TX,US,30.74,-95.59,104,7
KJCT,JCT,74740,Junction,TX,US,30.5,-99.77,522,6
KGRK,GRK,,Fort Hood/R Gray,TX,US,31.07,-97.83,309,5
KLRD,LRD,72252,Laredo Intl,TX,US,27.54,-99.47,155,3
KGGG,GGG,72247,Longview/Gregg Co,TX,US,32.38,-94.71,107,4
KLBB,LBB,72267,Lubbock Preston Smith Intl,TX,US,33.6658,-101.823,993,0
KLFK,LFK,,Lufkin,TX,US,31.23,-94.75,88,6
KMRF,MRF,72264,Marfa Muni,TX,US,30.38,-104.02,1481,6
KMFE,MFE,,Mcallen/Miller Intl,TX,US,26.18,-98.24,38,6
KMAF,MAF,72265,Midland Rgnl,TX,US,31.933,-102.2,874,5
KPRX,PRX,,Paris/Cox,TX,US,33.64,-95.45,167,7
KPEQ,PEQ,,Pecos,TX,US,31.382,-103.511,797,8
KSJT,SJT,72263,San Angelo/Mathi,TX,US,31.38,-100.5,576,5
KSAT,SAT,72253,San Antonio Intl,TX,US,29.54,-98.47,243,0
KGNC,GNC,,Seminole,TX,US,32.675,-102.653,1010,7
KSOA,SOA,,Sonora,TX,US,30.586,-100.649,652,7
KSEP,SEP,72260,Stephenville/Clark Muni,TX,US,32.215,-98.178,402,7
KTYR,TYR,,Tyler/Pounds Field,TX,US,32.35,-95.4,165,4
KVCT,VCT,72255,Victoria Rgnl,TX,US,28.86,-96.92,31,6
KACT,ACT,72256,Waco-Madison Coo,TX,US,31.62,-97.22,151,6
KSPS,SPS,72351,Sheppard AFB,TX,US,33.98,-98.48,308,4
KINK,INK,,Wink,TX,US,31.79,-103.2,855,6
KSLC,SLC,72572,Salt Lake City I,UT,US,40.79,-111.97,1286,0
K4BL,4BL,72472,Blanding,UT,US,37.62,-109.47,1840,7
KBDG,BDG,,Blanding,UT,US,37.5833333333,-109.466666667,1788,7
KBCE,BCE,,Bryce Canyon,UT,US,37.71,-112.16,2312,6
KCDC,CDC,,Cedar City Regnl,UT,US,37.7,-113.1,1714,4
KU24,U24,72479,Delta,UT,US,39.34,-112.59,1414,7
KDPG,DPG,74003,Dugway Prvg Grou,UT,US,40.21,-112.93,1326,3
KU28,U28,72477,Green River,UT,US,39.01,-110.15,1241,7
K4HV,4HV,72473,Hanksville,UT,US,38.38,-110.72,1314,7
K36U,36U,,Heber,UT,US,40.48,-111.43,1718,8
KLGU,LGU,,Logan-Cache,UT,US,41.79,-111.85,1355,6
KOGD,OGD,72575,Ogden/Hinckley,UT,US,41.2,-112.01,1353,1
KPUC,PUC,72470,Price/Carbon Co,UT,US,39.62,-110.75,2091,7
KPVU,PVU,,Provo,UT,US,40.23,-111.72,1369,6
KSGU,SGU,,Saint George,UT,US,37.09,-113.6,896,6
KVEL,VEL,,Vernal,UT,US,40.44,-109.51,1604,6
KENV,ENV,72581,Wendover (Autob),UT,US,40.73,-114.03,1292,4
KROA,ROA,72411,Roanoke Muni,VA,US,37.33,-79.97,362,3
KCHO,CHO,,Charlottesville-Albemarle,VA,US,38.14,-78.45,192,6
KDAN,DAN,,Danville,VA,US,36.58,-79.33,175,6
KFVX,FVX,,Farmville,VA,US,37.35,-78.43,125,7
KLYH,LYH,72410,Lynchburg/P. Gle,VA,US,37.34,-79.2,295,6
KPHF,PHF,,Patrick Henry,VA,US,37.14,-76.5,12,6
KORF,ORF,72308,Norfolk Rgnl,VA,US,36.9,-76.2,14,3
KRIC,RIC,72401,Richmond/Byrd Fi,VA,US,37.51,-77.31,50,4
KWAL,WAL,72402,Wallops Is Stn,VA,US,37.94,-75.47,14,5
KIAD,IAD,72403,Washington/Dulles,VA,US,38.96,-77.45,93,0
KBTV,BTV,72617,Burlington Intl,VT,US,44.48,-73.15,105,3
KMVL,MVL,,Morrisville,VT,US,44.53,-72.61,234,7
KMPV,MPV,,Montpelier/Knapp,VT,US,44.21,-72.57,343,4
KRUT,RUT,,Rutland,VT,US,43.54,-72.95,240,7
KVSF,VSF,,Springfield St,VT,US,43.34,-72.52,175,7
K1V4,1V4,72614,St. Johnsbury,VT,US,44.42,-72.02,210,7
KBLI,BLI,,Bellingham Intl,WA,US,48.79,-122.54,50,6
KCQV,CQV,,Colville Muni,WA,US,48.55,-117.89,572,7
KELN,ELN,,Ellensburg/Bowers Field,WA,US,47.03,-120.53,519,7
KEPH,EPH,,Ephrata,WA,US,47.33,-119.52,383,6
KPAE,PAE,,Everett/Snohomish Co (Paine Fld),WA,US,47.91,-122.28,180,6
KHQM,HQM,,Hoquiam,WA,US,46.98,-123.97,7,4
KMWH,MWH,,Moses Lake,WA,US,47.21,-119.32,362,6
KOLM,OLM,72792,Olympia,WA,US,46.98,-122.9,58,6
KPSC,PSC,,Pasco/Tri-Cities,WA,US,46.27,-119.12,121,6
KCLM,CLM,,Port Angeles/Wm R Fairchild Intl,WA,US,48.12,-123.5,85,6
KPUW,PUW,,Pullman/Moscow Regnl,WA,US,46.76,-117.12,773,7
KUIL,UIL,72797,Quillayute State,WA,US,47.96,-124.55,54,2
KRNT,RNT,,Renton Muni,WA,US,47.5,-122.22,21,7
KBFI,BFI,,Seattle/Boeing Fld/King Co Intl,WA,US,47.53,-122.3,4,1
KSEA,SEA,72793,Seattle-Tacoma Intl,WA,US,47.44,-122.31,136,0
KSFF,SFF,,Spokane/Felts Fld,WA,US,47.68,-117.32,609,6
KGEG,GEG,72785,Spokane Intl,WA,US,47.64,-117.53,735,1
KSMP,SMP,,Stampede Pass,WA,US,47.29,-121.33,1208,3
KTIW,TIW,,Tacoma Narrows,WA,US,47.27,-122.58,89,7
KALW,ALW,72788,Walla Walla Regnl,WA,US,46.09,-118.29,363,6
KEAT,EAT,,Wenatchee/Pngbrn,WA,US,47.41,-120.2,377,6
KYKM,YKM,72781,Yakima Air Termi,WA,US,46.56,-120.53,324,3
KGRB,GRB,72645,Green Bay/Straub,WI,US,44.48,-88.13,208,3
KEAU,EAU,,Eau Claire,WI,US,44.88,-91.48,276,4
KHYR,HYR,,Hayward,WI,US,46.025,-91.444,370,6
KENW,ENW,,Kenosha,WI,US,42.59,-87.94,219,7
KLSE,LSE,72643,La Crosse Muni,WI,US,43.88,-91.25,199,6
KRCX,RCX,,Ladysmith,WI,US,45.497,-91.0,377,8
KMSN,MSN,72641,Madison/Dane Rgnl,WI,US,43.14,-89.33,261,4
KMKE,MKE,,Milwaukee/Mitche,WI,US,42.96,-87.9,206,3
KRNH,RNH,,New Richmond Muni,WI,US,45.148,-92.538,304,7
KOSH,OSH,,Oshkosh/Wittman,WI,US,44.01,-88.57,248,6
KC35,C35,,Reedsburg,WI,US,43.5333333333,-89.9833333333,276,8
KRHI,RHI,,Rhinelander/Oneida Co,WI,US,45.63,-89.47,485,6
KSBM,SBM,99433,Sheboygan,WI,US,43.78,-87.85,232,7
KAUW,AUW,72646,Wausau/Alexander,WI,US,44.93,-89.62,362,6
KBKW,BKW,72412,Beckley Memorial,WV,US,37.79,-81.12,764,6
KBLF,BLF,,Bluefield,WV,US,37.3,-81.22,873,6
KCRW,CRW,72414,Charleston/Kanaw,WV,US,38.38,-81.6,309,6
KCKB,CKB,,Clarksburg/Benedum,WV,US,39.29,-80.23,360,4
KEKN,EKN,72417,Elkins/Randolph,WV,US,38.89,-79.85,603,4
KHTS,HTS,72425,Huntington/Tri S,WV,US,38.38,-82.55,254,3
KLWB,LWB,,Lewisburg,WV,US,37.88,-80.4,702,6
KMRB,MRB,,Martinsburg,WV,US,39.41,-77.98,164,4
KMGW,MGW,,Morgantown/Walter L. Hart Field,WV,US,39.64,-79.92,378,3
KPKB,PKB,72427,Parkersburg,WV,US,39.36,-81.43,262,6
K48I,48I,,Sutton,WV,US,38.687,-80.652,397,8
KHLG,HLG,,Wheeling/Ohio Co,WV,US,40.17,-80.65,372,6
KBPI,BPI,72671,Big Piney,WY,US,42.58,-110.1,2117,6
KCPR,CPR,72569,Casper/Natrona I,WY,US,42.93,-106.47,1621,6
KCYS,CYS,72564,Cheyenne/Warren,WY,US,41.16,-104.82,1868,3
KCOD,COD,72670,Cody Muni,WY,US,44.53,-109.02,1553,3
KEVW,EVW,,Evanston-Uninta Co Burns Field,WY,US,41.27,-111.03,2177,7
KGCC,GCC,72665,Gillette,WY,US,44.36,-105.53,1320,6
KJAC,JAC,,Jackson,WY,US,43.61,-110.73,1961,6
KLND,LND,72576,Lander/Hunt Fiel,WY,US,42.83,-108.73,1694,6
KLAR,LAR,,Laramie/Brees,WY,US,41.33,-105.68,2216,6
KPNA,PNA,,Pinedale,WY,US,42.795,-109.807,2160,8
KRWL,RWL,,Rawlins,WY,US,41.8,-107.2,2077,6
KRIW,RIW,72672,Riverton,WY,US,43.05,-108.45,1697,2
KRKS,RKS,72574,Rock Springs,WY,US,41.61,-109.07,2060,6
KSHR,SHR,72666,Sheridan Co.,WY,US,44.78,-106.97,1202,1
KWRL,WRL,,Worland Muni,WY,US,43.98,-107.97,1271,6
KHLD,HLD,,Hiland,WY,US,43.09,-107.32,1846,9
KDCA,DCA,72405,Washington/Natio,VA,US,38.86,-77.03,18,1
CYYC,YYC,71877,Calgary Intl,AB,CA,51.12,-114.02,1084,0
CYQL,YQL,71874,Lethbridge,AB,CA,49.64,-112.8,929,6
CYXH,YXH,71872,Medicine Hat,AB,CA,50.03,-110.72,716,6
CWHI,WHI,71249,Three Hills,AB,CA,51.71,-113.22,907,7
CYXX,YXX,71108,Abbotsford,BC,CA,49.04,-122.37,58,6
CYCG,YCG,71884,Castlegar,BC,CA,49.3,-117.63,495,6
CYQQ,YQQ,71893,Comox,BC,CA,49.73,-124.9,24,6
CYXC,YXC,71880,Cranbrook,BC,CA,49.62,-115.78,939,6
CYVR,YVR,71892,Vancouver Intl,BC,CA,49.19,-123.18,2,6
CWLM,WLM,71200,Victoria (Auto8),BC,CA,48.42,-123.32,70,7
CYYJ,YYJ,71799,Victoria Intl,BC,CA,48.66,-123.43,19,6
CWLO,WLO,71853,Shilo,MB,CA,49.79,-99.65,373,7
CYWG,YWG,71852,Winnipeg,MB,CA,49.93,-97.23,239,0
CYCX,YCX,71701,Gagetown,NB,CA,45.84,-66.43,51,6
CYQM,YQM,71705,Moncton,NB,CA,46.12,-64.68,71,6
CYSJ,YSJ,71609,Saint John,NB,CA,45.33,-65.88,109,6
CYZX,YZX,71397,Greenwood,NS,CA,44.98,-64.92,28,6
CYHZ,YHZ,71395,Halifax Intl,NS,CA,44.89,-63.52,145,0
CYAW,YAW,71601,Halifax,NS,CA,44.64,-63.5,51,6
CYQI,YQI,71603,Yarmouth,NS,CA,43.84,-66.08,43,5
CYGQ,YGQ,71834,Geraldton,ON,CA,49.79,-86.93,351,6
CYHM,YHM,71263,Hamilton Airport,ON,CA,43.17,-79.94,238,6
CYQK,YQK,71850,Kenora,ON,CA,49.79,-94.37,411,6
CYLH,,71697,Lansdowne House,ON,CA,52.2,-87.9333333333,254,7
CYXU,YXU,71623,London,ON,CA,43.04,-81.15,278,6
CYMO,YMO,71836,Moosonee,ON,CA,51.289,-80.614,10,5
CWZC,,,Moosonee,ON,CA,51.2833333333,-80.6,11,8
CYQA,YQA,71630,Muskoka,ON,CA,44.98,-79.3,282,6
CYYB,YYB,71731,North Bay,ON,CA,46.38,-79.42,371,6
CYOW,YOW,71628,Ottawa Intl,ON,CA,45.33,-75.67,114,2
CYWA,YWA,71625,Petawawa,ON,CA,45.96,-77.31,130,6
CYPQ,YPQ,,Peterborough,ON,CA,44.23,-78.37,191,6
CYPL,YPL,71845,Pickle Lake,ON,CA,51.48,-90.2,373,5
CYQT,YQT,71749,Thunder Bay,ON,CA,48.38,-89.32,199,0
CYTS,YTS,71739,Timmins,ON,CA,48.58,-81.38,295,6
CYYZ,YYZ,71624,Toronto Intl,ON,CA,43.69,-79.63,173,3
CYKF,YKF,71368,Waterloo Well,ON,CA,43.47,-80.39,317,6
CYXZ,YXZ,71738,Wawa,ON,CA,47.98,-84.78,287,6
CYVV,YVV,71633,Wiarton,ON,CA,44.76,-81.1,222,6
CYQG,YQG,71538,Windsor,ON,CA,42.28,-82.97,190,6
CYYG,YYG,71706,Charlottetown,PE,CA,46.29,-63.13,54,6
CYMT,YMT,71822,Chibougamau-Chapais,QB,CA,49.78,-74.53,387,6
CYUL,YUL,71627,Montreal/Dorval,QB,CA,45.47,-73.75,36,0
CYMX,YMX,71626,Montreal/Mirabel,QB,CA,45.69,-74.04,82,1
CYVO,YVO,71725,Val D'Or,QB,CA,48.05,-77.78,337,6
CYQR,YQR,71863,Regina,SK,CA,50.44,-104.67,577,0
CYXE,YXE,71866,Saskatoon,SK,CA,52.18,-106.7,504,5
MMCU,CUU,76225,Chihuahua Intl,,MX,28.7,-105.97,1372,1
MMCS,CJS,,Cuidad Juarez Intl,,MX,31.63,-106.43,1171,6
MMCN,CEN,,Ciudad Obregon Intl,MX,MX,27.39,-109.83,43,6
MMCL,CUL,76412,Culiacan,,MX,24.82,-107.4,39,6
MMGM,GYM,,Guaymas Intl,,MX,27.97,-110.93,20,5
MMHO,HMO,76160,Hermosillo Intl,,MX,29.07,-110.97,184,6
MMLP,LAP,,La Paz Intl,,MX,24.07,-110.37,21,1
MMMA,MAM,,Matamoros Intl,,MX,25.77,-97.53,8,6
MMML,MXL,,Mexicali Intl,,MX,32.66,-115.49,22,6
MMMY,MTY,,Monterrey/Gen Maria,,MX,25.78,-100.1,387,6
MMNL,NLD,,Nuevo Laredo Intl,,MX,27.43,-99.57,148,6
MMOX,OAX,76775,Oaxaca/Xoxocotlan,,MX,16.97,-96.73,1528,6
MMRX,REX,,Reynosa Intl,,MX,26.02,-98.23,39,6
MMTJ,TIJ,,Tijuana Intl,,MX,32.55,-116.97,152,6
MMTC,TRC,76382,Torreon,,MX,25.53,-103.45,1124,5
MYGF,,78062,Freeport Intl,,BS,26.55,-78.7,2,3
MYNN,,78073,NASsau Intl,,BS,25.05,-77.47,3,3
MUVR,,78229,Varadero,,CU,23.13,-81.28,65,6
UTSB,BHK,38683,Bukhara,UZ,UZ,39.72,64.62,226,6
